City,Country Name,IP,latitude,Longitude,Country Code,ISP,Organization
,"Korea, Republic of",125.132.51.243,37.56999999999999,126.98000000000002,KR,Korea Telecom,Korea Telecom
Monterrey,Mexico,189.218.142.1,25.66669999999999,-100.3167,MX,"Television Internacional, S.A. de C.V.","Television Internacional, S.A. de C.V."
,United Kingdom,80.47.56.57,51.5,-0.12999999999999545,GB,Tiscali UK Limited,Tiscali UK Limited
Monterrey,Mexico,189.218.109.1,25.66669999999999,-100.3167,MX,"Television Internacional, S.A. de C.V.","Television Internacional, S.A. de C.V."
Jinju,"Korea, Republic of",124.153.133.1,35.192800000000005,128.0847,KR,Seokyung Cable Television Co.. Ltd.,Seokyung Cable Television Co..LTD.
Jinju,"Korea, Republic of",58.65.126.129,35.192800000000005,128.0847,KR,Seokyung Cable Television Co.. Ltd.,Seokyung Cable Television Co..LTD.
Monterrey,Mexico,201.172.116.1,25.66669999999999,-100.3167,MX,"Television Internacional, S.A. de C.V.","Television Internacional, S.A. de C.V."
Monterrey,Mexico,187.160.179.129,25.66669999999999,-100.3167,MX,"Television Internacional, S.A. de C.V.","Television Internacional, S.A. de C.V."
Monterrey,Mexico,189.218.196.1,25.66669999999999,-100.3167,MX,"Television Internacional, S.A. de C.V.","Television Internacional, S.A. de C.V."
,Canada,205.210.254.61,60.0,-95.0,CA,CTV Television Network Limited,CTV Television Network Limited
Jinju,"Korea, Republic of",58.65.125.225,35.192800000000005,128.0847,KR,Seokyung Cable Television Co.. Ltd.,Seokyung Cable Television Co..LTD.
Monterrey,Mexico,187.161.220.153,25.66669999999999,-100.3167,MX,"Television Internacional, S.A. de C.V.","Television Internacional, S.A. de C.V."
,Germany,80.92.48.180,51.0,9.0,DE,Stellar PCS GmbH,"Stellar PCS GmbH, Infrastructure"
,"Korea, Republic of",211.108.30.227,37.56999999999999,126.98000000000002,KR,SK Broadband Co Ltd,SK Broadband Co Ltd
Monterrey,Mexico,189.218.248.1,25.66669999999999,-100.3167,MX,"Television Internacional, S.A. de C.V.","Television Internacional, S.A. de C.V."
,Mexico,207.248.54.77,19.430000000000007,-99.13,MX,"Television Internacional, S.A. de C.V.","Television Internacional, S.A. de C.V."
,"Korea, Republic of",211.108.30.131,37.56999999999999,126.98000000000002,KR,SK Broadband Co Ltd,SK Broadband Co Ltd
Monterrey,Mexico,187.160.60.1,25.66669999999999,-100.3167,MX,"Television Internacional, S.A. de C.V.","Television Internacional, S.A. de C.V."
Monterrey,Mexico,201.173.54.1,25.66669999999999,-100.3167,MX,"Television Internacional, S.A. de C.V.","Television Internacional, S.A. de C.V."
,Mexico,201.151.157.241,25.66669999999999,-100.4,MX,"Alestra, S. de R.L. de C.V.","Alestra, S. de R.L. de C.V."
Monterrey,Mexico,187.161.116.1,25.66669999999999,-100.3167,MX,"Television Internacional, S.A. de C.V.","Television Internacional, S.A. de C.V."
,United Kingdom,92.17.245.253,51.5,-0.12999999999999545,GB,TalkTalk,TalkTalk
,"Korea, Republic of",211.246.167.1,37.56999999999999,126.98000000000002,KR,Seokyung Cable Television Co.. Ltd.,Seokyung Cable Television Co..LTD.
,Mexico,207.248.50.185,19.430000000000007,-99.13,MX,"Television Internacional, S.A. de C.V.",Television Internacional S.A. de C.V.
Jinju,"Korea, Republic of",58.65.126.118,35.192800000000005,128.0847,KR,Seokyung Cable Television Co.. Ltd.,Seokyung Cable Television Co..LTD.
,"Korea, Republic of",211.246.207.1,37.56999999999999,126.98000000000002,KR,Seokyung Cable Television Co.. Ltd.,Seokyung Cable Television Co..LTD.
Monterrey,Mexico,187.161.148.1,25.66669999999999,-100.3167,MX,"Television Internacional, S.A. de C.V.","Television Internacional, S.A. de C.V."
Monterrey,Mexico,189.218.240.1,25.66669999999999,-100.3167,MX,"Television Internacional, S.A. de C.V.","Television Internacional, S.A. de C.V."
Jinju,"Korea, Republic of",124.153.151.1,35.192800000000005,128.0847,KR,Seokyung Cable Television Co.. Ltd.,Seokyung Cable Television Co..LTD.
Orangevale,United States,173.14.71.21,38.684500000000014,-121.22229999999999,US,Comcast Business Communications,Comcast Business Communications
Jinju,"Korea, Republic of",124.153.235.1,35.192800000000005,128.0847,KR,Seokyung Cable Television Co.. Ltd.,Seokyung Cable Television Co..LTD.
Monterrey,Mexico,189.218.212.241,25.66669999999999,-100.3167,MX,"Television Internacional, S.A. de C.V.","Television Internacional, S.A. de C.V."
Monterrey,Mexico,187.161.218.33,25.66669999999999,-100.3167,MX,"Television Internacional, S.A. de C.V.","Television Internacional, S.A. de C.V."
Jinju,"Korea, Republic of",124.153.211.1,35.192800000000005,128.0847,KR,Seokyung Cable Television Co.. Ltd.,Seokyung Cable Television Co..LTD.
,United States,38.96.244.5,38.0,-97.0,US,Cogent Communications,Multimedios Redes / Television Internacional SA de
,"Korea, Republic of",211.246.251.77,37.56999999999999,126.98000000000002,KR,Seokyung Cable Television Co.. Ltd.,Seokyung Cable Television Co..LTD.
Monterrey,Mexico,201.173.203.1,25.66669999999999,-100.3167,MX,"Television Internacional, S.A. de C.V.","Television Internacional, S.A. de C.V."
,Mexico,207.248.51.241,19.430000000000007,-99.13,MX,"Television Internacional, S.A. de C.V.","Television Internacional, S.A. de C.V."
Jinju,"Korea, Republic of",124.153.145.1,35.192800000000005,128.0847,KR,Seokyung Cable Television Co.. Ltd.,Seokyung Cable Television Co..LTD.
,Mexico,207.248.50.1,19.430000000000007,-99.13,MX,"Television Internacional, S.A. de C.V.",Television Internacional S.A. de C.V.
Monterrey,Mexico,201.173.0.33,25.66669999999999,-100.3167,MX,"Television Internacional, S.A. de C.V.","Television Internacional, S.A. de C.V."
Jinju,"Korea, Republic of",124.153.226.1,35.192800000000005,128.0847,KR,Seokyung Cable Television Co.. Ltd.,Seokyung Cable Television Co..LTD.
Monterrey,Mexico,201.173.0.197,25.66669999999999,-100.3167,MX,"Television Internacional, S.A. de C.V.","Television Internacional, S.A. de C.V."
,"Korea, Republic of",211.246.254.94,37.56999999999999,126.98000000000002,KR,Seokyung Cable Television Co.. Ltd.,Seokyung Cable Television Co..LTD.
,"Korea, Republic of",211.108.30.195,37.56999999999999,126.98000000000002,KR,SK Broadband Co Ltd,SK Broadband Co Ltd
Santiago,Chile,200.54.94.25,-33.44999999999999,-70.6667,CL,Ctc. Corp S.A. (telefonica Empresas),Cl-teemsr-lacnic
Jinju,"Korea, Republic of",124.153.204.1,35.192800000000005,128.0847,KR,Seokyung Cable Television Co.. Ltd.,Seokyung Cable Television Co..LTD.
Sidney,Canada,184.66.117.171,48.650000000000006,-123.41669999999999,CA,Shaw Communications,Shaw Communications
,Spain,85.88.142.45,40.0,-4.0,ES,COLT Technology Services Group Limited,Colt Telecom
,Australia,27.50.94.218,-27.0,133.0,AU,ServersAustralia,Servers Australia Pty
Monterrey,Mexico,187.161.254.1,25.66669999999999,-100.3167,MX,"Television Internacional, S.A. de C.V.","Television Internacional, S.A. de C.V."
,United States,38.96.244.13,38.0,-97.0,US,Cogent Communications,Multimedios Redes / Television Internacional SA de
Monterrey,Mexico,187.161.220.11,25.66669999999999,-100.3167,MX,"Television Internacional, S.A. de C.V.","Television Internacional, S.A. de C.V."
,United Kingdom,194.75.161.90,51.5,-0.12999999999999545,GB,BT,BT
Jinju,"Korea, Republic of",124.153.252.137,35.192800000000005,128.0847,KR,Seokyung Cable Television Co.. Ltd.,Seokyung Cable Television Co..LTD.
,,189.219.48.1,,,,,
Monterrey,Mexico,189.218.101.1,25.66669999999999,-100.3167,MX,"Television Internacional, S.A. de C.V.","Television Internacional, S.A. de C.V."
Monterrey,Mexico,187.161.250.81,25.66669999999999,-100.3167,MX,"Television Internacional, S.A. de C.V.","Television Internacional, S.A. de C.V."
Monterrey,Mexico,187.161.66.1,25.66669999999999,-100.3167,MX,"Television Internacional, S.A. de C.V.","Television Internacional, S.A. de C.V."
,"Korea, Republic of",211.246.241.1,37.56999999999999,126.98000000000002,KR,Seokyung Cable Television Co.. Ltd.,Seokyung Cable Television Co..LTD.
,Netherlands,195.35.219.72,52.5,5.75,NL,Ziggo BV,Ziggo BV
Jinju,"Korea, Republic of",124.153.147.1,35.192800000000005,128.0847,KR,Seokyung Cable Television Co.. Ltd.,Seokyung Cable Television Co..LTD.
,"Korea, Republic of",211.246.252.21,37.56999999999999,126.98000000000002,KR,Seokyung Cable Television Co.. Ltd.,Seokyung Cable Television Co..LTD.
,Mexico,207.248.34.97,19.430000000000007,-99.13,MX,"Television Internacional, S.A. de C.V.","Television Internacional, S.A. de C.V."
Jinju,"Korea, Republic of",115.160.0.1,35.192800000000005,128.0847,KR,Seokyung Cable Television Co.. Ltd.,Seokyung Cable Television Co..LTD.
Jinju,"Korea, Republic of",58.65.126.65,35.192800000000005,128.0847,KR,Seokyung Cable Television Co.. Ltd.,Seokyung Cable Television Co..LTD.
,"Korea, Republic of",211.246.175.1,37.56999999999999,126.98000000000002,KR,Seokyung Cable Television Co.. Ltd.,Seokyung Cable Television Co..LTD.
Monterrey,Mexico,187.160.84.1,25.66669999999999,-100.3167,MX,"Television Internacional, S.A. de C.V.","Television Internacional, S.A. de C.V."
Monterrey,Mexico,201.172.12.249,25.66669999999999,-100.3167,MX,"Television Internacional, S.A. de C.V.","Television Internacional, S.A. de C.V."
,"Korea, Republic of",211.246.253.161,37.56999999999999,126.98000000000002,KR,Seokyung Cable Television Co.. Ltd.,Seokyung Cable Television Co..LTD.
Monterrey,Mexico,187.161.220.191,25.66669999999999,-100.3167,MX,"Television Internacional, S.A. de C.V.","Television Internacional, S.A. de C.V."
College Station,United States,165.95.101.37,30.65209999999999,-96.341,US,Texas A&M University,Texas A&M University
Jinju,"Korea, Republic of",124.153.252.33,35.192800000000005,128.0847,KR,Seokyung Cable Television Co.. Ltd.,Seokyung Cable Television Co..LTD.
Monterrey,Mexico,201.172.2.113,25.66669999999999,-100.3167,MX,"Television Internacional, S.A. de C.V.","Television Internacional, S.A. de C.V."
Monterrey,Mexico,189.218.212.233,25.66669999999999,-100.3167,MX,"Television Internacional, S.A. de C.V.","Television Internacional, S.A. de C.V."
,"Korea, Republic of",211.246.234.1,37.56999999999999,126.98000000000002,KR,Seokyung Cable Television Co.. Ltd.,Seokyung Cable Television Co..LTD.
,"Korea, Republic of",211.246.185.5,37.56999999999999,126.98000000000002,KR,Seokyung Cable Television Co.. Ltd.,Seokyung Cable Television Co..LTD.
Monterrey,Mexico,187.161.214.1,25.66669999999999,-100.3167,MX,"Television Internacional, S.A. de C.V.","Television Internacional, S.A. de C.V."
Monterrey,Mexico,201.173.0.185,25.66669999999999,-100.3167,MX,"Television Internacional, S.A. de C.V.","Television Internacional, S.A. de C.V."
Monterrey,Mexico,187.161.184.1,25.66669999999999,-100.3167,MX,"Television Internacional, S.A. de C.V.","Television Internacional, S.A. de C.V."
,"Korea, Republic of",211.246.253.89,37.56999999999999,126.98000000000002,KR,Seokyung Cable Television Co.. Ltd.,Seokyung Cable Television Co..LTD.
,Mexico,207.248.34.233,19.430000000000007,-99.13,MX,"Television Internacional, S.A. de C.V.","Television Internacional, S.A. de C.V."
,"Bonaire, Sint Eustatius and Saba",200.6.144.71,12.21289999999999,-68.2944,BQ,Telefonia Bonairiano N.V.,Telefonia Bonairiano N.V.
,"Korea, Republic of",211.40.191.11,37.56999999999999,126.98000000000002,KR,LG DACOM Corporation,LG DACOM Corporation
Jinju,"Korea, Republic of",124.153.206.1,35.192800000000005,128.0847,KR,Seokyung Cable Television Co.. Ltd.,Seokyung Cable Television Co..LTD.
Monterrey,Mexico,201.173.144.1,25.66669999999999,-100.3167,MX,"Television Internacional, S.A. de C.V.","Television Internacional, S.A. de C.V."
Monterrey,Mexico,189.218.208.1,25.66669999999999,-100.3167,MX,"Television Internacional, S.A. de C.V.","Television Internacional, S.A. de C.V."
Yukon,United States,68.12.15.187,35.506699999999995,-97.7625,US,Cox Communications,Cox Communications
,Mexico,207.248.60.129,19.430000000000007,-99.13,MX,"Television Internacional, S.A. de C.V.",Television Internacional S.A. de C.V.
Monterrey,Mexico,201.173.67.1,25.66669999999999,-100.3167,MX,"Television Internacional, S.A. de C.V.","Television Internacional, S.A. de C.V."
Monterrey,Mexico,201.173.109.9,25.66669999999999,-100.3167,MX,"Television Internacional, S.A. de C.V.","Television Internacional, S.A. de C.V."
Jinju,"Korea, Republic of",58.65.125.69,35.192800000000005,128.0847,KR,Seokyung Cable Television Co.. Ltd.,Seokyung Cable Television Co..LTD.
Monterrey,Mexico,201.173.28.1,25.66669999999999,-100.3167,MX,"Television Internacional, S.A. de C.V.","Television Internacional, S.A. de C.V."
Monterrey,Mexico,201.173.122.1,25.66669999999999,-100.3167,MX,"Television Internacional, S.A. de C.V.","Television Internacional, S.A. de C.V."
,Mexico,187.161.182.1,25.75,-100.3,MX,"Television Internacional, S.A. de C.V.","Television Internacional, S.A. de C.V."
,"Korea, Republic of",211.246.175.13,37.56999999999999,126.98000000000002,KR,Seokyung Cable Television Co.. Ltd.,Seokyung Cable Television Co..LTD.
,United Kingdom,86.188.234.203,51.5,-0.12999999999999545,GB,BT,BT
,United States,50.244.68.20,38.0,-97.0,US,Comcast Cable,Comcast Cable
Monterrey,Mexico,201.173.237.1,25.66669999999999,-100.3167,MX,"Television Internacional, S.A. de C.V.","Television Internacional, S.A. de C.V."
Velsen,Netherlands,213.126.51.236,52.4607,4.648300000000006,NL,Ziggo,B2B Velsen Noord
Jinju,"Korea, Republic of",124.153.243.1,35.192800000000005,128.0847,KR,Seokyung Cable Television Co.. Ltd.,Seokyung Cable Television Co..LTD.
Monterrey,Mexico,201.172.150.1,25.66669999999999,-100.3167,MX,"Television Internacional, S.A. de C.V.","Television Internacional, S.A. de C.V."
Monterrey,Mexico,201.173.159.1,25.66669999999999,-100.3167,MX,"Television Internacional, S.A. de C.V.","Television Internacional, S.A. de C.V."
Monterrey,Mexico,201.172.192.1,25.66669999999999,-100.3167,MX,"Television Internacional, S.A. de C.V.","Television Internacional, S.A. de C.V."
Minneapolis,United States,50.93.252.254,44.92500000000001,-93.2881,US,US Internet Corp,US Internet Corp
Monterrey,Mexico,201.173.196.1,25.66669999999999,-100.3167,MX,"Television Internacional, S.A. de C.V.","Television Internacional, S.A. de C.V."
Monterrey,Mexico,201.173.121.1,25.66669999999999,-100.3167,MX,"Television Internacional, S.A. de C.V.","Television Internacional, S.A. de C.V."
Jinju,"Korea, Republic of",124.153.192.1,35.192800000000005,128.0847,KR,Seokyung Cable Television Co.. Ltd.,Seokyung Cable Television Co..LTD.
,"Korea, Republic of",211.246.142.1,37.56999999999999,126.98000000000002,KR,Seokyung Cable Television Co.. Ltd.,Seokyung Cable Television Co..LTD.
,Hong Kong,202.52.211.176,22.25,114.16669999999999,HK,"GlobeCast Hong Kong (GCHK), HK",GlobeCast Hong Kong
Monterrey,Mexico,201.173.203.29,25.66669999999999,-100.3167,MX,"Television Internacional, S.A. de C.V.","Television Internacional, S.A. de C.V."
Jinju,"Korea, Republic of",58.65.126.133,35.192800000000005,128.0847,KR,Seokyung Cable Television Co.. Ltd.,Seokyung Cable Television Co..LTD.
,Finland,212.50.206.19,64.0,26.0,FI,PPO-Yhtiot Oy,PPO-Yhtiot Oy
,"Korea, Republic of",211.246.175.9,37.56999999999999,126.98000000000002,KR,Seokyung Cable Television Co.. Ltd.,Seokyung Cable Television Co..LTD.
Monterrey,Mexico,187.161.220.163,25.66669999999999,-100.3167,MX,"Television Internacional, S.A. de C.V.","Television Internacional, S.A. de C.V."
,"Bonaire, Sint Eustatius and Saba",200.6.144.68,12.21289999999999,-68.2944,BQ,Telefonia Bonairiano N.V.,Telefonia Bonairiano N.V.
Jeju,"Korea, Republic of",122.202.250.100,33.50970000000001,126.52190000000002,KR,Kctv Jeju Broadcasting,Kctv Jeju Broadcasting
Monterrey,Mexico,201.172.194.1,25.66669999999999,-100.3167,MX,"Television Internacional, S.A. de C.V.","Television Internacional, S.A. de C.V."
Seoul,"Korea, Republic of",106.245.245.190,37.5985,126.97829999999999,KR,BORANET,BORANET
,United Arab Emirates,195.229.82.118,24.0,54.0,AE,Emirates Telecommunications Corporation,Emirates
Sofia,Bulgaria,84.22.4.93,42.6833,23.316699999999997,BG,ITD Network SA,Atlantis NET Network
,"Korea, Republic of",211.246.151.1,37.56999999999999,126.98000000000002,KR,Seokyung Cable Television Co.. Ltd.,Seokyung Cable Television Co..LTD.
,"Korea, Republic of",211.32.40.197,37.56999999999999,126.98000000000002,KR,LG DACOM Corporation,LG DACOM Corporation
,Mexico,207.248.60.185,19.430000000000007,-99.13,MX,"Television Internacional, S.A. de C.V.",Television Internacional S.A. de C.V.
,Indonesia,203.190.243.3,-5.0,120.0,ID,PT Detik Ini Juga,PT. Detik Ini JUga
Monterrey,Mexico,201.173.0.125,25.66669999999999,-100.3167,MX,"Television Internacional, S.A. de C.V.","Television Internacional, S.A. de C.V."
Monterrey,Mexico,187.161.45.65,25.66669999999999,-100.3167,MX,"Television Internacional, S.A. de C.V.","Television Internacional, S.A. de C.V."
,Mexico,207.248.51.97,19.430000000000007,-99.13,MX,"Television Internacional, S.A. de C.V.","Television Internacional, S.A. de C.V."
Jinju,"Korea, Republic of",58.65.125.6,35.192800000000005,128.0847,KR,Seokyung Cable Television Co.. Ltd.,Seokyung Cable Television Co..LTD.
Monterrey,Mexico,187.161.220.53,25.66669999999999,-100.3167,MX,"Television Internacional, S.A. de C.V.","Television Internacional, S.A. de C.V."
Jinju,"Korea, Republic of",124.153.155.1,35.192800000000005,128.0847,KR,Seokyung Cable Television Co.. Ltd.,Seokyung Cable Television Co..LTD.
Christchurch,New Zealand,111.69.245.75,-43.5333,172.63330000000002,NZ,Snap Net,Snap Net
East Hartford,United States,64.251.60.231,41.77760000000001,-72.6214,US,State of Connecticut,State of Connecticut
,Mexico,201.151.157.217,25.66669999999999,-100.4,MX,"Alestra, S. de R.L. de C.V.","Alestra, S. de R.L. de C.V."
Monterrey,Mexico,187.161.144.1,25.66669999999999,-100.3167,MX,"Television Internacional, S.A. de C.V.","Television Internacional, S.A. de C.V."
Tulsa,United States,66.55.250.130,36.0977,-95.8551,US,Windstream Communications,Windstream Communications
Kamas,United States,216.117.226.4,40.62719999999999,-111.1589,US,All West Communications,All West Communications
Jinju,"Korea, Republic of",124.153.205.1,35.192800000000005,128.0847,KR,Seokyung Cable Television Co.. Ltd.,Seokyung Cable Television Co..LTD.
Santiago,Chile,186.67.31.25,-33.44999999999999,-70.6667,CL,Entel Chile S.A.,Chile S.A.
New York,United States,170.20.116.8,40.7662,-73.9862,US,CBS Corporation,CBS
Monterrey,Mexico,201.173.226.1,25.66669999999999,-100.3167,MX,"Television Internacional, S.A. de C.V.","Television Internacional, S.A. de C.V."
Jinju,"Korea, Republic of",58.65.82.1,35.192800000000005,128.0847,KR,Seokyung Cable Television Co.. Ltd.,Seokyung Cable Television Co..LTD.
Bangkok,Thailand,203.209.101.136,13.75399999999999,100.50139999999999,TH,KSC Commercial Internet Co. Ltd.,KSC Commercial Internet Co. Ltd.
,Nepal,110.34.13.42,28.0,84.0,NP,Subisu CableNet (Pvt) Ltd,Subisu CableNet (Pvt) Ltd
Monterrey,Mexico,201.173.0.13,25.66669999999999,-100.3167,MX,"Television Internacional, S.A. de C.V.","Television Internacional, S.A. de C.V."
Monterrey,Mexico,189.218.212.161,25.66669999999999,-100.3167,MX,"Television Internacional, S.A. de C.V.","Television Internacional, S.A. de C.V."
College Station,United States,165.95.101.32,30.65209999999999,-96.341,US,Texas A&M University,Texas A&M University
,"Korea, Republic of",211.108.30.132,37.56999999999999,126.98000000000002,KR,SK Broadband Co Ltd,SK Broadband Co Ltd
Monterrey,Mexico,187.161.248.193,25.66669999999999,-100.3167,MX,"Television Internacional, S.A. de C.V.","Television Internacional, S.A. de C.V."
Monterrey,Mexico,201.172.146.1,25.66669999999999,-100.3167,MX,"Television Internacional, S.A. de C.V.","Television Internacional, S.A. de C.V."
Monterrey,Mexico,201.173.158.1,25.66669999999999,-100.3167,MX,"Television Internacional, S.A. de C.V.","Television Internacional, S.A. de C.V."
,Mexico,207.248.43.153,19.430000000000007,-99.13,MX,"Television Internacional, S.A. de C.V.","Television Internacional, S.A. de C.V."
Jinju,"Korea, Republic of",58.65.71.153,35.192800000000005,128.0847,KR,Seokyung Cable Television Co.. Ltd.,Seokyung Cable Television Co..LTD.
Monterrey,Mexico,201.173.84.1,25.66669999999999,-100.3167,MX,"Television Internacional, S.A. de C.V.","Television Internacional, S.A. de C.V."
,"Korea, Republic of",61.76.76.218,37.56999999999999,126.98000000000002,KR,Korea Telecom,Korea Telecom
Monterrey,Mexico,201.172.2.217,25.66669999999999,-100.3167,MX,"Television Internacional, S.A. de C.V.","Television Internacional, S.A. de C.V."
Jinju,"Korea, Republic of",124.153.225.1,35.192800000000005,128.0847,KR,Seokyung Cable Television Co.. Ltd.,Seokyung Cable Television Co..LTD.
,"Korea, Republic of",211.246.203.1,37.56999999999999,126.98000000000002,KR,Seokyung Cable Television Co.. Ltd.,Seokyung Cable Television Co..LTD.
Monterrey,Mexico,187.161.219.33,25.66669999999999,-100.3167,MX,"Television Internacional, S.A. de C.V.","Television Internacional, S.A. de C.V."
Montgat,Spain,212.170.23.107,41.468500000000006,2.2804999999999893,ES,Telefonica de Espana,Telefonica de Espana
,Germany,80.92.48.171,51.0,9.0,DE,Stellar PCS GmbH,"Stellar PCS GmbH, Infrastructure"
,"Bonaire, Sint Eustatius and Saba",200.6.144.67,12.21289999999999,-68.2944,BQ,Telefonia Bonairiano N.V.,Telefonia Bonairiano N.V.
Jinju,"Korea, Republic of",58.65.125.58,35.192800000000005,128.0847,KR,Seokyung Cable Television Co.. Ltd.,Seokyung Cable Television Co..LTD.
Monterrey,Mexico,201.173.218.1,25.66669999999999,-100.3167,MX,"Television Internacional, S.A. de C.V.","Television Internacional, S.A. de C.V."
Monterrey,Mexico,201.173.194.1,25.66669999999999,-100.3167,MX,"Television Internacional, S.A. de C.V.","Television Internacional, S.A. de C.V."
Monterrey,Mexico,201.173.0.165,25.66669999999999,-100.3167,MX,"Television Internacional, S.A. de C.V.","Television Internacional, S.A. de C.V."
Monterrey,Mexico,189.218.252.1,25.66669999999999,-100.3167,MX,"Television Internacional, S.A. de C.V.","Television Internacional, S.A. de C.V."
,,189.219.104.1,,,,,
Tucson,United States,128.196.34.12,32.2338,-110.95,US,University of Arizona,University of Arizona
,United States,38.107.181.1,38.0,-97.0,US,Cogent Communications,UCLA Film & Television Archive
Jinju,"Korea, Republic of",124.153.176.1,35.192800000000005,128.0847,KR,Seokyung Cable Television Co.. Ltd.,Seokyung Cable Television Co..LTD.
Monterrey,Mexico,187.161.28.1,25.66669999999999,-100.3167,MX,"Television Internacional, S.A. de C.V.","Television Internacional, S.A. de C.V."
,Mexico,187.237.45.110,19.430000000000007,-99.13,MX,Uninet S.A. de C.V.,Uninet S.A. de C.V.
Monterrey,Mexico,187.161.49.1,25.66669999999999,-100.3167,MX,"Television Internacional, S.A. de C.V.","Television Internacional, S.A. de C.V."
Monterrey,Mexico,187.161.220.204,25.66669999999999,-100.3167,MX,"Television Internacional, S.A. de C.V.","Television Internacional, S.A. de C.V."
Monterrey,Mexico,189.218.178.1,25.66669999999999,-100.3167,MX,"Television Internacional, S.A. de C.V.","Television Internacional, S.A. de C.V."
,Netherlands,90.145.33.66,52.5,5.75,NL,Unet B.V.,Unet B.V.
Jinju,"Korea, Republic of",58.65.126.102,35.192800000000005,128.0847,KR,Seokyung Cable Television Co.. Ltd.,Seokyung Cable Television Co..LTD.
Monterrey,Mexico,187.161.32.1,25.66669999999999,-100.3167,MX,"Television Internacional, S.A. de C.V.","Television Internacional, S.A. de C.V."
Monterrey,Mexico,189.218.212.97,25.66669999999999,-100.3167,MX,"Television Internacional, S.A. de C.V.","Television Internacional, S.A. de C.V."
Monterrey,Mexico,201.172.16.1,25.66669999999999,-100.3167,MX,"Television Internacional, S.A. de C.V.","Television Internacional, S.A. de C.V."
Monterrey,Mexico,201.173.109.241,25.66669999999999,-100.3167,MX,"Television Internacional, S.A. de C.V.","Television Internacional, S.A. de C.V."
Seoul,"Korea, Republic of",106.245.245.189,37.5985,126.97829999999999,KR,BORANET,BORANET
,Spain,62.14.190.98,40.0,-4.0,ES,Jazz Telecom S.A.,Jazz Telecom S.A.
Monterrey,Mexico,189.218.80.1,25.66669999999999,-100.3167,MX,"Television Internacional, S.A. de C.V.","Television Internacional, S.A. de C.V."
,,189.219.128.1,,,,,
Monterrey,Mexico,201.172.12.50,25.66669999999999,-100.3167,MX,"Television Internacional, S.A. de C.V.","Television Internacional, S.A. de C.V."
,Mexico,207.248.51.193,19.430000000000007,-99.13,MX,"Television Internacional, S.A. de C.V.","Television Internacional, S.A. de C.V."
,United States,38.104.210.254,38.0,-97.0,US,Cogent Communications,Cogent Communications
Monterrey,Mexico,187.160.45.65,25.66669999999999,-100.3167,MX,"Television Internacional, S.A. de C.V.","Television Internacional, S.A. de C.V."
Durham,United States,132.177.204.12,43.12710000000001,-70.9627,US,University of New Hampshire,University of New Hampshire
Monterrey,Mexico,189.218.212.33,25.66669999999999,-100.3167,MX,"Television Internacional, S.A. de C.V.","Television Internacional, S.A. de C.V."
,"Korea, Republic of",211.246.251.21,37.56999999999999,126.98000000000002,KR,Seokyung Cable Television Co.. Ltd.,Seokyung Cable Television Co..LTD.
Jinju,"Korea, Republic of",58.65.126.26,35.192800000000005,128.0847,KR,Seokyung Cable Television Co.. Ltd.,Seokyung Cable Television Co..LTD.
Monterrey,Mexico,201.173.0.177,25.66669999999999,-100.3167,MX,"Television Internacional, S.A. de C.V.","Television Internacional, S.A. de C.V."
Monterrey,Mexico,201.172.12.81,25.66669999999999,-100.3167,MX,"Television Internacional, S.A. de C.V.","Television Internacional, S.A. de C.V."
Monterrey,Mexico,187.160.3.1,25.66669999999999,-100.3167,MX,"Television Internacional, S.A. de C.V.","Television Internacional, S.A. de C.V."
Monterrey,Mexico,201.173.184.1,25.66669999999999,-100.3167,MX,"Television Internacional, S.A. de C.V.","Television Internacional, S.A. de C.V."
Monterrey,Mexico,187.160.236.1,25.66669999999999,-100.3167,MX,"Television Internacional, S.A. de C.V.","Television Internacional, S.A. de C.V."
,Spain,85.88.142.45,40.0,-4.0,ES,COLT Technology Services Group Limited,Colt Telecom
Santiago,Chile,164.77.122.57,-33.44999999999999,-70.6667,CL,Entel Internet,Chile S.A.
Monterrey,Mexico,187.161.220.34,25.66669999999999,-100.3167,MX,"Television Internacional, S.A. de C.V.","Television Internacional, S.A. de C.V."
,"Korea, Republic of",211.246.148.1,37.56999999999999,126.98000000000002,KR,Seokyung Cable Television Co.. Ltd.,Seokyung Cable Television Co..LTD.
Monterrey,Mexico,201.173.182.1,25.66669999999999,-100.3167,MX,"Television Internacional, S.A. de C.V.","Television Internacional, S.A. de C.V."
Monterrey,Mexico,201.173.0.181,25.66669999999999,-100.3167,MX,"Television Internacional, S.A. de C.V.","Television Internacional, S.A. de C.V."
,"Bonaire, Sint Eustatius and Saba",200.6.144.66,12.21289999999999,-68.2944,BQ,Telefonia Bonairiano N.V.,Telefonia Bonairiano N.V.
Jinju,"Korea, Republic of",124.153.239.1,35.192800000000005,128.0847,KR,Seokyung Cable Television Co.. Ltd.,Seokyung Cable Television Co..LTD.
Chesterfield,United States,208.172.129.130,38.650000000000006,-90.5334,US,Savvis,Savvis
Monterrey,Mexico,189.218.138.1,25.66669999999999,-100.3167,MX,"Television Internacional, S.A. de C.V.","Television Internacional, S.A. de C.V."
,"Korea, Republic of",211.246.252.1,37.56999999999999,126.98000000000002,KR,Seokyung Cable Television Co.. Ltd.,Seokyung Cable Television Co..LTD.
,"Korea, Republic of",211.32.40.166,37.56999999999999,126.98000000000002,KR,LG DACOM Corporation,LG DACOM Corporation
Monterrey,Mexico,187.161.166.1,25.66669999999999,-100.3167,MX,"Television Internacional, S.A. de C.V.","Television Internacional, S.A. de C.V."
Santiago,Chile,200.29.181.3,-33.44999999999999,-70.6667,CL,Telmex Chile Internet S.A.,Telmex Servicios Empresariales S.A.
Jinju,"Korea, Republic of",58.65.125.137,35.192800000000005,128.0847,KR,Seokyung Cable Television Co.. Ltd.,Seokyung Cable Television Co..LTD.
Monterrey,Mexico,187.161.252.33,25.66669999999999,-100.3167,MX,"Television Internacional, S.A. de C.V.","Television Internacional, S.A. de C.V."
Jinju,"Korea, Republic of",58.65.125.105,35.192800000000005,128.0847,KR,Seokyung Cable Television Co.. Ltd.,Seokyung Cable Television Co..LTD.
,"Korea, Republic of",211.246.253.17,37.56999999999999,126.98000000000002,KR,Seokyung Cable Television Co.. Ltd.,Seokyung Cable Television Co..LTD.
Monterrey,Mexico,189.218.212.129,25.66669999999999,-100.3167,MX,"Television Internacional, S.A. de C.V.","Television Internacional, S.A. de C.V."
,United Kingdom,194.75.161.91,51.5,-0.12999999999999545,GB,BT,BT
Monterrey,Mexico,187.161.250.113,25.66669999999999,-100.3167,MX,"Television Internacional, S.A. de C.V.","Television Internacional, S.A. de C.V."
Monterrey,Mexico,201.173.160.1,25.66669999999999,-100.3167,MX,"Television Internacional, S.A. de C.V.","Television Internacional, S.A. de C.V."
Seoul,"Korea, Republic of",123.215.15.189,37.5985,126.97829999999999,KR,Hanaro Telecom,Hanaro Telecom
,Hong Kong,202.52.211.176,22.25,114.16669999999999,HK,"GlobeCast Hong Kong (GCHK), HK",GlobeCast Hong Kong
,Mexico,207.248.43.137,19.430000000000007,-99.13,MX,"Television Internacional, S.A. de C.V.","Television Internacional, S.A. de C.V."
Jinju,"Korea, Republic of",124.153.186.1,35.192800000000005,128.0847,KR,Seokyung Cable Television Co.. Ltd.,Seokyung Cable Television Co..LTD.
,"Korea, Republic of",211.246.158.1,37.56999999999999,126.98000000000002,KR,Seokyung Cable Television Co.. Ltd.,Seokyung Cable Television Co..LTD.
Jinju,"Korea, Republic of",115.160.8.1,35.192800000000005,128.0847,KR,Seokyung Cable Television Co.. Ltd.,Seokyung Cable Television Co..LTD.
,"Korea, Republic of",211.246.179.1,37.56999999999999,126.98000000000002,KR,Seokyung Cable Television Co.. Ltd.,Seokyung Cable Television Co..LTD.
,Albania,95.107.253.171,41.0,20.0,AL,Albanian Satellite Communications sh.p.k.,Albanian Satellite Communications sh.p.k.
,"Korea, Republic of",211.246.240.137,37.56999999999999,126.98000000000002,KR,Seokyung Cable Television Co.. Ltd.,Seokyung Cable Television Co..LTD.
College Station,United States,165.95.101.31,30.65209999999999,-96.341,US,Texas A&M University,Texas A&M University
,"Korea, Republic of",211.246.253.29,37.56999999999999,126.98000000000002,KR,Seokyung Cable Television Co.. Ltd.,Seokyung Cable Television Co..LTD.
,"Korea, Republic of",211.108.30.195,37.56999999999999,126.98000000000002,KR,SK Broadband Co Ltd,SK Broadband Co Ltd
Monterrey,Mexico,201.172.224.1,25.66669999999999,-100.3167,MX,"Television Internacional, S.A. de C.V.","Television Internacional, S.A. de C.V."
Monterrey,Mexico,201.173.24.1,25.66669999999999,-100.3167,MX,"Television Internacional, S.A. de C.V.","Television Internacional, S.A. de C.V."
,Mexico,207.248.60.25,19.430000000000007,-99.13,MX,"Television Internacional, S.A. de C.V.",Television Internacional S.A. de C.V.
Jinju,"Korea, Republic of",58.65.71.49,35.192800000000005,128.0847,KR,Seokyung Cable Television Co.. Ltd.,Seokyung Cable Television Co..LTD.
Jinju,"Korea, Republic of",58.65.126.110,35.192800000000005,128.0847,KR,Seokyung Cable Television Co.. Ltd.,Seokyung Cable Television Co..LTD.
Monterrey,Mexico,201.172.12.129,25.66669999999999,-100.3167,MX,"Television Internacional, S.A. de C.V.","Television Internacional, S.A. de C.V."
,United States,38.104.210.74,38.0,-97.0,US,Cogent Communications,Cogent Communications
Monterrey,Mexico,189.218.253.1,25.66669999999999,-100.3167,MX,"Television Internacional, S.A. de C.V.","Television Internacional, S.A. de C.V."
,"Korea, Republic of",211.246.253.221,37.56999999999999,126.98000000000002,KR,Seokyung Cable Television Co.. Ltd.,Seokyung Cable Television Co..LTD.
Monterrey,Mexico,189.218.99.1,25.66669999999999,-100.3167,MX,"Television Internacional, S.A. de C.V.","Television Internacional, S.A. de C.V."
,France,193.248.32.72,48.860000000000014,2.3499999999999943,FR,Orange,Orange
Jinju,"Korea, Republic of",115.160.36.225,35.192800000000005,128.0847,KR,Seokyung Cable Television Co.. Ltd.,Seokyung Cable Television Co..LTD.
,,189.219.72.1,,,,,
,Senegal,213.154.93.4,13.333300000000008,-13.766699999999986,SN,Societe Nationale Des Telecommunications Du Senega,Societe Nationale Des Telecommunications Du Senega
,"Korea, Republic of",211.246.251.45,37.56999999999999,126.98000000000002,KR,Seokyung Cable Television Co.. Ltd.,Seokyung Cable Television Co..LTD.
Jinju,"Korea, Republic of",124.153.202.1,35.192800000000005,128.0847,KR,Seokyung Cable Television Co.. Ltd.,Seokyung Cable Television Co..LTD.
Monterrey,Mexico,201.173.207.1,25.66669999999999,-100.3167,MX,"Television Internacional, S.A. de C.V.","Television Internacional, S.A. de C.V."
Pawcatuck,United States,64.251.63.105,41.36859999999999,-71.8637,US,State of Connecticut,State of Connecticut
,"Korea, Republic of",211.246.204.1,37.56999999999999,126.98000000000002,KR,Seokyung Cable Television Co.. Ltd.,Seokyung Cable Television Co..LTD.
,United States,38.96.244.33,38.0,-97.0,US,Cogent Communications,Multimedios Redes / Television Internacional SA de
Jinju,"Korea, Republic of",124.153.246.1,35.192800000000005,128.0847,KR,Seokyung Cable Television Co.. Ltd.,Seokyung Cable Television Co..LTD.
Jinju,"Korea, Republic of",58.65.125.38,35.192800000000005,128.0847,KR,Seokyung Cable Television Co.. Ltd.,Seokyung Cable Television Co..LTD.
Jinju,"Korea, Republic of",124.153.252.1,35.192800000000005,128.0847,KR,Seokyung Cable Television Co.. Ltd.,Seokyung Cable Television Co..LTD.
Vienna,Austria,213.143.113.147,48.19999999999999,16.36670000000001,AT,Wien Energie GmbH,Wien Energie GmbH
Tucson,United States,64.119.40.42,32.2217,-110.9265,US,"Simply Bits, LLC","Simply Bits, LLC"
Monterrey,Mexico,189.218.180.1,25.66669999999999,-100.3167,MX,"Television Internacional, S.A. de C.V.","Television Internacional, S.A. de C.V."
Monterrey,Mexico,201.173.124.1,25.66669999999999,-100.3167,MX,"Television Internacional, S.A. de C.V.","Television Internacional, S.A. de C.V."
Saltillo,Mexico,201.158.64.6,25.41669999999999,-101.0,MX,"Cablevision de Saltillo, S.A. de C.V.","Cablevision de Saltillo, S.A. de C.V."
Monterrey,Mexico,201.173.240.1,25.66669999999999,-100.3167,MX,"Television Internacional, S.A. de C.V.","Television Internacional, S.A. de C.V."
,"Korea, Republic of",211.246.249.1,37.56999999999999,126.98000000000002,KR,Seokyung Cable Television Co.. Ltd.,Seokyung Cable Television Co..LTD.
,United Kingdom,217.138.42.136,51.5,-0.12999999999999545,GB,Venus Business Communications Limited,Venus Business Communications Limited
Monterrey,Mexico,187.161.220.54,25.66669999999999,-100.3167,MX,"Television Internacional, S.A. de C.V.","Television Internacional, S.A. de C.V."
,"Korea, Republic of",211.246.253.185,37.56999999999999,126.98000000000002,KR,Seokyung Cable Television Co.. Ltd.,Seokyung Cable Television Co..LTD.
Monterrey,Mexico,201.172.0.162,25.66669999999999,-100.3167,MX,"Television Internacional, S.A. de C.V.","Television Internacional, S.A. de C.V."
,"Korea, Republic of",211.246.253.237,37.56999999999999,126.98000000000002,KR,Seokyung Cable Television Co.. Ltd.,Seokyung Cable Television Co..LTD.
Monterrey,Mexico,201.172.12.51,25.66669999999999,-100.3167,MX,"Television Internacional, S.A. de C.V.","Television Internacional, S.A. de C.V."
Monterrey,Mexico,187.160.16.1,25.66669999999999,-100.3167,MX,"Television Internacional, S.A. de C.V.","Television Internacional, S.A. de C.V."
Monterrey,Mexico,187.160.56.1,25.66669999999999,-100.3167,MX,"Television Internacional, S.A. de C.V.","Television Internacional, S.A. de C.V."
Monterrey,Mexico,201.172.182.1,25.66669999999999,-100.3167,MX,"Television Internacional, S.A. de C.V.","Television Internacional, S.A. de C.V."
,Mexico,207.248.54.73,19.430000000000007,-99.13,MX,"Television Internacional, S.A. de C.V.","Television Internacional, S.A. de C.V."
,Germany,212.40.170.201,51.0,9.0,DE,synergetic AG,synergetic AG
Jinju,"Korea, Republic of",124.153.252.121,35.192800000000005,128.0847,KR,Seokyung Cable Television Co.. Ltd.,Seokyung Cable Television Co..LTD.
,Mexico,207.248.34.33,19.430000000000007,-99.13,MX,"Television Internacional, S.A. de C.V.","Television Internacional, S.A. de C.V."
,"Korea, Republic of",211.60.119.11,37.56999999999999,126.98000000000002,KR,LG DACOM Corporation,LG DACOM Corporation
Monterrey,Mexico,187.160.179.225,25.66669999999999,-100.3167,MX,"Television Internacional, S.A. de C.V.","Television Internacional, S.A. de C.V."
Tepatitlan,Mexico,201.140.104.193,20.816699999999997,-102.7333,MX,"Operbes, S.A. de C.V.","Operbes, S.A. de C.V."
Monterrey,Mexico,187.161.220.23,25.66669999999999,-100.3167,MX,"Television Internacional, S.A. de C.V.","Television Internacional, S.A. de C.V."
Monterrey,Mexico,201.172.177.1,25.66669999999999,-100.3167,MX,"Television Internacional, S.A. de C.V.","Television Internacional, S.A. de C.V."
Jinju,"Korea, Republic of",124.153.252.133,35.192800000000005,128.0847,KR,Seokyung Cable Television Co.. Ltd.,Seokyung Cable Television Co..LTD.
,"Korea, Republic of",211.246.131.1,37.56999999999999,126.98000000000002,KR,Seokyung Cable Television Co.. Ltd.,Seokyung Cable Television Co..LTD.
Monterrey,Mexico,187.160.222.1,25.66669999999999,-100.3167,MX,"Television Internacional, S.A. de C.V.","Television Internacional, S.A. de C.V."
Monterrey,Mexico,189.218.0.1,25.66669999999999,-100.3167,MX,"Television Internacional, S.A. de C.V.","Television Internacional, S.A. de C.V."
Monterrey,Mexico,201.173.0.117,25.66669999999999,-100.3167,MX,"Television Internacional, S.A. de C.V.","Television Internacional, S.A. de C.V."
Monterrey,Mexico,187.160.105.1,25.66669999999999,-100.3167,MX,"Television Internacional, S.A. de C.V.","Television Internacional, S.A. de C.V."
Monterrey,Mexico,201.173.92.1,25.66669999999999,-100.3167,MX,"Television Internacional, S.A. de C.V.","Television Internacional, S.A. de C.V."
Jinju,"Korea, Republic of",58.65.126.18,35.192800000000005,128.0847,KR,Seokyung Cable Television Co.. Ltd.,Seokyung Cable Television Co..LTD.
Jinju,"Korea, Republic of",124.153.198.1,35.192800000000005,128.0847,KR,Seokyung Cable Television Co.. Ltd.,Seokyung Cable Television Co..LTD.
Santiago,Chile,200.68.10.17,-33.44999999999999,-70.6667,CL,Ctc. Corp S.A. (telefonica Empresas),Ctc. Corp S.A. (telefonica Empresas)
Monterrey,Mexico,201.173.109.33,25.66669999999999,-100.3167,MX,"Television Internacional, S.A. de C.V.","Television Internacional, S.A. de C.V."
Monterrey,Mexico,189.218.213.1,25.66669999999999,-100.3167,MX,"Television Internacional, S.A. de C.V.","Television Internacional, S.A. de C.V."
Monterrey,Mexico,201.173.106.1,25.66669999999999,-100.3167,MX,"Television Internacional, S.A. de C.V.","Television Internacional, S.A. de C.V."
Monterrey,Mexico,201.172.232.1,25.66669999999999,-100.3167,MX,"Television Internacional, S.A. de C.V.","Television Internacional, S.A. de C.V."
Monterrey,Mexico,201.172.12.17,25.66669999999999,-100.3167,MX,"Television Internacional, S.A. de C.V.","Television Internacional, S.A. de C.V."
Monterrey,Mexico,187.160.182.1,25.66669999999999,-100.3167,MX,"Television Internacional, S.A. de C.V.","Television Internacional, S.A. de C.V."
Walla Walla,United States,206.126.17.2,46.11070000000001,-118.3077,US,Pocketinet Communications,Pocketinet Communications
,Mexico,207.248.39.77,19.430000000000007,-99.13,MX,"Television Internacional, S.A. de C.V.","Television Internacional, S.A. de C.V."
Monterrey,Mexico,189.218.187.1,25.66669999999999,-100.3167,MX,"Television Internacional, S.A. de C.V.","Television Internacional, S.A. de C.V."
Jinju,"Korea, Republic of",124.153.252.25,35.192800000000005,128.0847,KR,Seokyung Cable Television Co.. Ltd.,Seokyung Cable Television Co..LTD.
Tampa,United States,131.247.105.19,28.06309999999999,-82.4128,US,University Of South Florida,University Of South Florida
Rockmart,United States,97.67.100.201,33.976200000000006,-85.0527,US,ITC Deltacom,ITC Deltacom
Monterrey,Mexico,201.173.0.17,25.66669999999999,-100.3167,MX,"Television Internacional, S.A. de C.V.","Television Internacional, S.A. de C.V."
Jinju,"Korea, Republic of",124.153.232.1,35.192800000000005,128.0847,KR,Seokyung Cable Television Co.. Ltd.,Seokyung Cable Television Co..LTD.
,"Korea, Republic of",211.246.206.1,37.56999999999999,126.98000000000002,KR,Seokyung Cable Television Co.. Ltd.,Seokyung Cable Television Co..LTD.
Monterrey,Mexico,201.173.0.9,25.66669999999999,-100.3167,MX,"Television Internacional, S.A. de C.V.","Television Internacional, S.A. de C.V."
Monterrey,Mexico,201.173.68.1,25.66669999999999,-100.3167,MX,"Television Internacional, S.A. de C.V.","Television Internacional, S.A. de C.V."
,"Korea, Republic of",211.246.254.174,37.56999999999999,126.98000000000002,KR,Seokyung Cable Television Co.. Ltd.,Seokyung Cable Television Co..LTD.
Vicenza,Italy,188.152.163.185,45.55000000000001,11.550000000000011,IT,Vodafone Italia DSL,Vodafone Italia DSL
Monterrey,Mexico,187.161.172.1,25.66669999999999,-100.3167,MX,"Television Internacional, S.A. de C.V.","Television Internacional, S.A. de C.V."
,,189.219.112.1,,,,,
,"Korea, Republic of",211.246.196.1,37.56999999999999,126.98000000000002,KR,Seokyung Cable Television Co.. Ltd.,Seokyung Cable Television Co..LTD.
Monterrey,Mexico,187.160.196.1,25.66669999999999,-100.3167,MX,"Television Internacional, S.A. de C.V.","Television Internacional, S.A. de C.V."
,United States,38.96.244.65,38.0,-97.0,US,Cogent Communications,Multimedios Redes / Television Internacional SA de
Monterrey,Mexico,201.172.2.73,25.66669999999999,-100.3167,MX,"Television Internacional, S.A. de C.V.","Television Internacional, S.A. de C.V."
Monterrey,Mexico,201.173.0.21,25.66669999999999,-100.3167,MX,"Television Internacional, S.A. de C.V.","Television Internacional, S.A. de C.V."
,United States,184.188.130.91,38.0,-97.0,US,Cox Communications,Cox Communications
Monterrey,Mexico,201.173.165.65,25.66669999999999,-100.3167,MX,"Television Internacional, S.A. de C.V.","Television Internacional, S.A. de C.V."
Jinju,"Korea, Republic of",124.153.210.1,35.192800000000005,128.0847,KR,Seokyung Cable Television Co.. Ltd.,Seokyung Cable Television Co..LTD.
Monterrey,Mexico,187.161.48.1,25.66669999999999,-100.3167,MX,"Television Internacional, S.A. de C.V.","Television Internacional, S.A. de C.V."
Monterrey,Mexico,201.172.122.1,25.66669999999999,-100.3167,MX,"Television Internacional, S.A. de C.V.","Television Internacional, S.A. de C.V."
,"Korea, Republic of",211.246.134.1,37.56999999999999,126.98000000000002,KR,Seokyung Cable Television Co.. Ltd.,Seokyung Cable Television Co..LTD.
Monterrey,Mexico,189.218.32.1,25.66669999999999,-100.3167,MX,"Television Internacional, S.A. de C.V.","Television Internacional, S.A. de C.V."
Paris,France,82.234.115.158,48.86670000000001,2.3333000000000084,FR,Free SAS,Free SAS
Jinju,"Korea, Republic of",58.65.125.118,35.192800000000005,128.0847,KR,Seokyung Cable Television Co.. Ltd.,Seokyung Cable Television Co..LTD.
Seoul,"Korea, Republic of",123.215.15.189,37.5985,126.97829999999999,KR,Hanaro Telecom,Hanaro Telecom
Monterrey,Mexico,201.172.188.1,25.66669999999999,-100.3167,MX,"Television Internacional, S.A. de C.V.","Television Internacional, S.A. de C.V."
Jinju,"Korea, Republic of",124.153.201.1,35.192800000000005,128.0847,KR,Seokyung Cable Television Co.. Ltd.,Seokyung Cable Television Co..LTD.
Jinju,"Korea, Republic of",58.65.125.88,35.192800000000005,128.0847,KR,Seokyung Cable Television Co.. Ltd.,Seokyung Cable Television Co..LTD.
Jinju,"Korea, Republic of",58.65.126.38,35.192800000000005,128.0847,KR,Seokyung Cable Television Co.. Ltd.,Seokyung Cable Television Co..LTD.
Jinju,"Korea, Republic of",115.160.41.1,35.192800000000005,128.0847,KR,Seokyung Cable Television Co.. Ltd.,Seokyung Cable Television Co..LTD.
Monterrey,Mexico,187.161.252.193,25.66669999999999,-100.3167,MX,"Television Internacional, S.A. de C.V.","Television Internacional, S.A. de C.V."
,,189.219.8.1,,,,,
,Colombia,181.225.88.1,4.0,-72.0,CO,,
Costa Mesa,United States,207.145.197.6,33.67930000000001,-117.9055,US,MegaPath Networks,The Chicago Switch
,"Korea, Republic of",211.246.253.5,37.56999999999999,126.98000000000002,KR,Seokyung Cable Television Co.. Ltd.,Seokyung Cable Television Co..LTD.
,"Korea, Republic of",211.246.253.69,37.56999999999999,126.98000000000002,KR,Seokyung Cable Television Co.. Ltd.,Seokyung Cable Television Co..LTD.
,"Korea, Republic of",211.246.240.17,37.56999999999999,126.98000000000002,KR,Seokyung Cable Television Co.. Ltd.,Seokyung Cable Television Co..LTD.
Monterrey,Mexico,201.172.12.33,25.66669999999999,-100.3167,MX,"Television Internacional, S.A. de C.V.","Television Internacional, S.A. de C.V."
Coraopolis,United States,72.95.142.166,40.49979999999999,-80.1842,US,Verizon FiOS,Verizon FiOS
Apodaca,Mexico,187.160.184.1,25.766699999999986,-100.2,MX,"Television Internacional, S.A. de C.V.","Television Internacional, S.A. de C.V."
,,189.219.208.1,,,,,
Chesterfield,United States,206.155.2.254,38.650000000000006,-90.5334,US,Savvis,Savvis
Jinju,"Korea, Republic of",124.153.213.1,35.192800000000005,128.0847,KR,Seokyung Cable Television Co.. Ltd.,Seokyung Cable Television Co..LTD.
Monterrey,Mexico,201.172.230.1,25.66669999999999,-100.3167,MX,"Television Internacional, S.A. de C.V.","Television Internacional, S.A. de C.V."
,Sweden,83.241.228.93,62.0,15.0,SE,DGC Access AB,DGC Access AB
,"Korea, Republic of",211.246.133.1,37.56999999999999,126.98000000000002,KR,Seokyung Cable Television Co.. Ltd.,Seokyung Cable Television Co..LTD.
,"Korea, Republic of",211.108.30.163,37.56999999999999,126.98000000000002,KR,SK Broadband Co Ltd,SK Broadband Co Ltd
Monterrey,Mexico,187.160.132.1,25.66669999999999,-100.3167,MX,"Television Internacional, S.A. de C.V.","Television Internacional, S.A. de C.V."
,"Korea, Republic of",211.246.163.1,37.56999999999999,126.98000000000002,KR,Seokyung Cable Television Co.. Ltd.,Seokyung Cable Television Co..LTD.
Pennant Hills,Australia,202.3.193.146,-33.74860000000001,151.03379999999999,AU,"Digital Distribution Australia, Carrier Service Pr",Flow Communications 2/541 Kent St Sydney NSW 2000
,"Korea, Republic of",211.246.130.1,37.56999999999999,126.98000000000002,KR,Seokyung Cable Television Co.. Ltd.,Seokyung Cable Television Co..LTD.
Monterrey,Mexico,201.172.0.163,25.66669999999999,-100.3167,MX,"Television Internacional, S.A. de C.V.","Television Internacional, S.A. de C.V."
Monterrey,Mexico,187.160.45.129,25.66669999999999,-100.3167,MX,"Television Internacional, S.A. de C.V.","Television Internacional, S.A. de C.V."
East Hartford,United States,64.251.60.245,41.77760000000001,-72.6214,US,State of Connecticut,State of Connecticut
,United States,184.188.130.94,38.0,-97.0,US,Cox Communications,Cox Communications
,"Korea, Republic of",211.246.186.65,37.56999999999999,126.98000000000002,KR,Seokyung Cable Television Co.. Ltd.,Seokyung Cable Television Co..LTD.
Jinju,"Korea, Republic of",58.65.118.9,35.192800000000005,128.0847,KR,Seokyung Cable Television Co.. Ltd.,Seokyung Cable Television Co..LTD.
,United States,66.133.9.102,38.0,-97.0,US,SES Americom,SES Americom
,,189.219.32.1,,,,,
Apodaca,Mexico,201.173.220.1,25.766699999999986,-100.2,MX,"Television Internacional, S.A. de C.V.","Television Internacional, S.A. de C.V."
,"Korea, Republic of",211.246.253.201,37.56999999999999,126.98000000000002,KR,Seokyung Cable Television Co.. Ltd.,Seokyung Cable Television Co..LTD.
,"Korea, Republic of",211.246.185.65,37.56999999999999,126.98000000000002,KR,Seokyung Cable Television Co.. Ltd.,Seokyung Cable Television Co..LTD.
Jinju,"Korea, Republic of",124.153.231.1,35.192800000000005,128.0847,KR,Seokyung Cable Television Co.. Ltd.,Seokyung Cable Television Co..LTD.
Chesterfield,United States,208.172.128.198,38.650000000000006,-90.5334,US,Savvis,Savvis
Monterrey,Mexico,201.173.238.1,25.66669999999999,-100.3167,MX,"Television Internacional, S.A. de C.V.","Television Internacional, S.A. de C.V."
Jinju,"Korea, Republic of",124.153.195.1,35.192800000000005,128.0847,KR,Seokyung Cable Television Co.. Ltd.,Seokyung Cable Television Co..LTD.
Monterrey,Mexico,189.218.110.1,25.66669999999999,-100.3167,MX,"Television Internacional, S.A. de C.V.","Television Internacional, S.A. de C.V."
,Senegal,213.154.93.4,13.333300000000008,-13.766699999999986,SN,Societe Nationale Des Telecommunications Du Senega,Societe Nationale Des Telecommunications Du Senega
,"Korea, Republic of",211.108.30.163,37.56999999999999,126.98000000000002,KR,SK Broadband Co Ltd,SK Broadband Co Ltd
,Switzerland,212.25.12.212,47.0,8.0,CH,Iway AG,Iway AG
Jinju,"Korea, Republic of",124.153.214.1,35.192800000000005,128.0847,KR,Seokyung Cable Television Co.. Ltd.,Seokyung Cable Television Co..LTD.
Jinju,"Korea, Republic of",124.153.238.1,35.192800000000005,128.0847,KR,Seokyung Cable Television Co.. Ltd.,Seokyung Cable Television Co..LTD.
Monterrey,Mexico,189.218.168.1,25.66669999999999,-100.3167,MX,"Television Internacional, S.A. de C.V.","Television Internacional, S.A. de C.V."
Jinju,"Korea, Republic of",124.153.252.69,35.192800000000005,128.0847,KR,Seokyung Cable Television Co.. Ltd.,Seokyung Cable Television Co..LTD.
,"Korea, Republic of",211.108.30.131,37.56999999999999,126.98000000000002,KR,SK Broadband Co Ltd,SK Broadband Co Ltd
Santiago,Chile,200.54.100.17,-33.44999999999999,-70.6667,CL,Ctc. Corp S.A. (telefonica Empresas),Cl-teemsr-lacnic
,Sweden,213.80.127.3,55.599999999999994,13.0,SE,Bahnhof Internet AB,Bahnhof Internet AB
,"Korea, Republic of",61.76.76.218,37.56999999999999,126.98000000000002,KR,Korea Telecom,Korea Telecom
Denver,United States,67.134.161.212,39.7388,-104.4083,US,CenturyLink,CenturyLink
,"Korea, Republic of",211.108.30.227,37.56999999999999,126.98000000000002,KR,SK Broadband Co Ltd,SK Broadband Co Ltd
Jinju,"Korea, Republic of",124.153.237.1,35.192800000000005,128.0847,KR,Seokyung Cable Television Co.. Ltd.,Seokyung Cable Television Co..LTD.
,,189.219.24.1,,,,,
,Austria,195.202.170.218,47.33330000000001,13.333300000000008,AT,Kabelsignal AG,Kabelsignal AG
Monterrey,Mexico,187.161.176.1,25.66669999999999,-100.3167,MX,"Television Internacional, S.A. de C.V.","Television Internacional, S.A. de C.V."
Kamas,United States,216.117.226.2,40.62719999999999,-111.1589,US,All West Communications,All West Communications
Monterrey,Mexico,201.173.74.1,25.66669999999999,-100.3167,MX,"Television Internacional, S.A. de C.V.","Television Internacional, S.A. de C.V."
Monterrey,Mexico,187.161.219.65,25.66669999999999,-100.3167,MX,"Television Internacional, S.A. de C.V.","Television Internacional, S.A. de C.V."
,"Korea, Republic of",211.246.162.1,37.56999999999999,126.98000000000002,KR,Seokyung Cable Television Co.. Ltd.,Seokyung Cable Television Co..LTD.
,"Korea, Republic of",211.108.30.67,37.56999999999999,126.98000000000002,KR,SK Broadband Co Ltd,SK Broadband Co Ltd
,"Bonaire, Sint Eustatius and Saba",200.6.144.67,12.21289999999999,-68.2944,BQ,Telefonia Bonairiano N.V.,Telefonia Bonairiano N.V.
East Hartford,United States,64.251.60.233,41.77760000000001,-72.6214,US,State of Connecticut,State of Connecticut
,Italy,94.86.53.252,42.83330000000001,12.833300000000008,IT,Telecom Italia,Telecom Italia
Rich Creek,United States,216.115.203.64,37.392300000000006,-80.8137,US,WVVA.net,WVVA.net
Guangzhou,China,183.63.72.174,23.11670000000001,113.25,CN,China Telecom Guangdong,China Telecom Guangdong
,"Korea, Republic of",211.246.132.1,37.56999999999999,126.98000000000002,KR,Seokyung Cable Television Co.. Ltd.,Seokyung Cable Television Co..LTD.
,"Korea, Republic of",211.246.253.41,37.56999999999999,126.98000000000002,KR,Seokyung Cable Television Co.. Ltd.,Seokyung Cable Television Co..LTD.
Monterrey,Mexico,201.172.0.166,25.66669999999999,-100.3167,MX,"Television Internacional, S.A. de C.V.","Television Internacional, S.A. de C.V."
Pawcatuck,United States,64.251.63.107,41.36859999999999,-71.8637,US,State of Connecticut,State of Connecticut
Jinju,"Korea, Republic of",58.65.127.150,35.192800000000005,128.0847,KR,Seokyung Cable Television Co.. Ltd.,Seokyung Cable Television Co..LTD.
College Station,United States,165.95.101.36,30.65209999999999,-96.341,US,Texas A&M University,Texas A&M University
,Albania,95.107.249.77,41.0,20.0,AL,Albanian Satellite Communications sh.p.k.,Albanian Satellite Communications sh.p.k.
Monterrey,Mexico,187.161.200.1,25.66669999999999,-100.3167,MX,"Television Internacional, S.A. de C.V.","Television Internacional, S.A. de C.V."
Ulsan,"Korea, Republic of",112.109.37.126,35.53720000000001,129.31670000000003,KR,Joyful Communication Network,Ulsan Jung-Ang Broadcasting Network
Monterrey,Mexico,187.161.68.1,25.66669999999999,-100.3167,MX,"Television Internacional, S.A. de C.V.","Television Internacional, S.A. de C.V."
,Bermuda,69.17.199.100,32.33330000000001,-64.75,BM,Cable & Wireless - Bermuda,Cable & Wireless - Bermuda
Monterrey,Mexico,189.218.16.1,25.66669999999999,-100.3167,MX,"Television Internacional, S.A. de C.V.","Television Internacional, S.A. de C.V."
Monterrey,Mexico,201.172.2.145,25.66669999999999,-100.3167,MX,"Television Internacional, S.A. de C.V.","Television Internacional, S.A. de C.V."
New York,United States,71.249.209.23,40.74209999999999,-74.0018,US,Verizon Internet Services,Verizon Internet Services
,Mexico,201.172.189.1,25.66669999999999,-100.4,MX,"Television Internacional, S.A. de C.V.","Television Internacional, S.A. de C.V."
,Mexico,207.248.39.185,19.430000000000007,-99.13,MX,"Television Internacional, S.A. de C.V.","Television Internacional, S.A. de C.V."
Jinju,"Korea, Republic of",124.153.240.1,35.192800000000005,128.0847,KR,Seokyung Cable Television Co.. Ltd.,Seokyung Cable Television Co..LTD.
Monterrey,Mexico,187.160.21.1,25.66669999999999,-100.3167,MX,"Television Internacional, S.A. de C.V.","Television Internacional, S.A. de C.V."
Rio Rancho,United States,72.24.153.128,35.246700000000004,-106.7232,US,Cable One,Cable One
Santiago,Peru,64.76.93.21,-14.188600000000008,-75.7142,PE,Level 3 Communications,Global Crossing
Monterrey,Mexico,201.172.184.1,25.66669999999999,-100.3167,MX,"Television Internacional, S.A. de C.V.","Television Internacional, S.A. de C.V."
,,189.219.200.1,,,,,
Mcallen,United States,63.218.161.110,26.203399999999988,-98.23,US,Beyond The Network America,Beyond The Network America
Mexico,Mexico,189.202.188.21,19.434200000000004,-99.1386,MX,"Operbes, S.A. de C.V.","Operbes, S.A. de C.V."
Monterrey,Mexico,187.160.4.1,25.66669999999999,-100.3167,MX,"Television Internacional, S.A. de C.V.","Television Internacional, S.A. de C.V."
Guadalajara,Mexico,189.199.90.168,20.66669999999999,-103.3333,MX,"Mega Cable, S.A. de C.V.","Mega Cable, S.A. de C.V."
Jinju,"Korea, Republic of",58.65.126.94,35.192800000000005,128.0847,KR,Seokyung Cable Television Co.. Ltd.,Seokyung Cable Television Co..LTD.
Santiago,Chile,190.82.71.132,-33.44999999999999,-70.6667,CL,Telefonica Empresas,Telefonica Empresas
Monterrey,Mexico,187.161.252.1,25.66669999999999,-100.3167,MX,"Television Internacional, S.A. de C.V.","Television Internacional, S.A. de C.V."
Monterrey,Mexico,187.160.228.1,25.66669999999999,-100.3167,MX,"Television Internacional, S.A. de C.V.","Television Internacional, S.A. de C.V."
Bellevue,United States,168.156.127.4,47.615399999999994,-122.21029999999999,US,Washington State Board for Community & Technical C,Seattle Community College District
,Mexico,207.248.54.69,19.430000000000007,-99.13,MX,"Television Internacional, S.A. de C.V.","Television Internacional, S.A. de C.V."
,United States,38.96.244.17,38.0,-97.0,US,Cogent Communications,Multimedios Redes / Television Internacional SA de
Monterrey,Mexico,189.218.250.1,25.66669999999999,-100.3167,MX,"Television Internacional, S.A. de C.V.","Television Internacional, S.A. de C.V."
Monterrey,Mexico,189.218.194.1,25.66669999999999,-100.3167,MX,"Television Internacional, S.A. de C.V.","Television Internacional, S.A. de C.V."
,Canada,184.70.161.10,60.0,-95.0,CA,Shaw Communications,Shaw Communications
,"Bonaire, Sint Eustatius and Saba",200.6.144.69,12.21289999999999,-68.2944,BQ,Telefonia Bonairiano N.V.,Telefonia Bonairiano N.V.
,Italy,2.228.20.119,42.83330000000001,12.833300000000008,IT,Fastweb,Fastweb
,"Korea, Republic of",211.246.253.101,37.56999999999999,126.98000000000002,KR,Seokyung Cable Television Co.. Ltd.,Seokyung Cable Television Co..LTD.
Guangzhou,China,183.63.72.172,23.11670000000001,113.25,CN,China Telecom Guangdong,China Telecom Guangdong
Monterrey,Mexico,201.172.118.1,25.66669999999999,-100.3167,MX,"Television Internacional, S.A. de C.V.","Television Internacional, S.A. de C.V."
Jinju,"Korea, Republic of",124.153.189.1,35.192800000000005,128.0847,KR,Seokyung Cable Television Co.. Ltd.,Seokyung Cable Television Co..LTD.
,,189.219.96.1,,,,,
,Mexico,207.248.60.97,19.430000000000007,-99.13,MX,"Television Internacional, S.A. de C.V.",Television Internacional S.A. de C.V.
Garcia,Mexico,187.161.226.1,25.816699999999997,-100.5833,MX,"Television Internacional, S.A. de C.V.","Television Internacional, S.A. de C.V."
,India,121.244.56.19,20.0,77.0,IN,TATA Communications,TATA Communications
Wisconsin Rapids,United States,206.176.200.178,44.33600000000001,-89.7403,US,"Datawave Technologies, LLC","Datawave Technologies, LLC"
Columbus,United States,71.18.181.14,39.9649,-83.1383,US,Ecommerce Corporation,Ecommerce Corporation
,"Korea, Republic of",211.246.128.1,37.56999999999999,126.98000000000002,KR,Seokyung Cable Television Co.. Ltd.,Seokyung Cable Television Co..LTD.
,India,113.20.19.71,20.0,77.0,IN,Gujarat Telelink Pvt Ltd.,Gujarat Telelik Pvt
,Mexico,207.248.48.4,19.430000000000007,-99.13,MX,"Television Internacional, S.A. de C.V.",Television Internacional S.A. de C.V.
Silver Spring,United States,192.104.54.162,38.990700000000004,-77.0261,US,CenturyLink,CenturyLink
,France,193.248.32.161,48.860000000000014,2.3499999999999943,FR,Orange,Orange
Monterrey,Mexico,187.160.214.1,25.66669999999999,-100.3167,MX,"Television Internacional, S.A. de C.V.","Television Internacional, S.A. de C.V."
,"Korea, Republic of",211.246.252.169,37.56999999999999,126.98000000000002,KR,Seokyung Cable Television Co.. Ltd.,Seokyung Cable Television Co..LTD.
Monterrey,Mexico,187.160.232.1,25.66669999999999,-100.3167,MX,"Television Internacional, S.A. de C.V.","Television Internacional, S.A. de C.V."
,"Korea, Republic of",211.246.240.33,37.56999999999999,126.98000000000002,KR,Seokyung Cable Television Co.. Ltd.,Seokyung Cable Television Co..LTD.
Monterrey,Mexico,201.172.197.1,25.66669999999999,-100.3167,MX,"Television Internacional, S.A. de C.V.","Television Internacional, S.A. de C.V."
,Albania,95.107.249.77,41.0,20.0,AL,Albanian Satellite Communications sh.p.k.,Albanian Satellite Communications sh.p.k.
Mexico,Mexico,201.148.54.154,19.434200000000004,-99.1386,MX,"Operbes, S.A. de C.V.",Ingenieria Ip Bestel
Lincoln,United States,64.89.188.52,40.80000000000001,-96.667,US,University of Nebraska,University of Nebraska
Jinju,"Korea, Republic of",124.153.241.1,35.192800000000005,128.0847,KR,Seokyung Cable Television Co.. Ltd.,Seokyung Cable Television Co..LTD.
,Colombia,190.25.158.51,4.0,-72.0,CO,ETB,ETB
New York,United States,63.117.206.70,40.71430000000001,-74.006,US,Verizon Business,Verizon Business
,"Korea, Republic of",211.246.253.233,37.56999999999999,126.98000000000002,KR,Seokyung Cable Television Co.. Ltd.,Seokyung Cable Television Co..LTD.
Jinju,"Korea, Republic of",58.65.126.114,35.192800000000005,128.0847,KR,Seokyung Cable Television Co.. Ltd.,Seokyung Cable Television Co..LTD.
,"Bonaire, Sint Eustatius and Saba",200.6.144.66,12.21289999999999,-68.2944,BQ,Telefonia Bonairiano N.V.,Telefonia Bonairiano N.V.
College Station,United States,165.95.101.34,30.65209999999999,-96.341,US,Texas A&M University,Texas A&M University
Tampa,United States,131.247.105.20,28.06309999999999,-82.4128,US,University Of South Florida,University Of South Florida
,United States,38.107.179.129,38.0,-97.0,US,Cogent Communications,UCLA Film & Television Archive
Monterrey,Mexico,187.160.253.65,25.66669999999999,-100.3167,MX,"Television Internacional, S.A. de C.V.","Television Internacional, S.A. de C.V."
London,United Kingdom,217.111.185.93,51.51419999999999,-0.09309999999999263,GB,COLT Technology Services Group Limited,COLT-GB
Jinju,"Korea, Republic of",115.160.36.129,35.192800000000005,128.0847,KR,Seokyung Cable Television Co.. Ltd.,Seokyung Cable Television Co..LTD.
,"Korea, Republic of",211.246.253.25,37.56999999999999,126.98000000000002,KR,Seokyung Cable Television Co.. Ltd.,Seokyung Cable Television Co..LTD.
Louisville,United States,192.160.73.55,39.95580000000001,-105.1683,US,Cable Television Laboratories,Cable Television Laboratories
Jinju,"Korea, Republic of",124.153.177.1,35.192800000000005,128.0847,KR,Seokyung Cable Television Co.. Ltd.,Seokyung Cable Television Co..LTD.
,Colombia,190.27.246.97,4.0,-72.0,CO,ETB,ETB
Monterrey,Mexico,187.160.179.65,25.66669999999999,-100.3167,MX,"Television Internacional, S.A. de C.V.","Television Internacional, S.A. de C.V."
,"Korea, Republic of",211.246.176.1,37.56999999999999,126.98000000000002,KR,Seokyung Cable Television Co.. Ltd.,Seokyung Cable Television Co..LTD.
,"Korea, Republic of",211.246.172.1,37.56999999999999,126.98000000000002,KR,Seokyung Cable Television Co.. Ltd.,Seokyung Cable Television Co..LTD.
Monterrey,Mexico,187.161.45.1,25.66669999999999,-100.3167,MX,"Television Internacional, S.A. de C.V.","Television Internacional, S.A. de C.V."
,Norway,195.204.21.118,62.0,10.0,NO,Broadnet AS,Broadnet AS
Antananarivo,Madagascar,41.188.13.52,-18.91669999999999,47.516699999999986,MG,DTS Ltd.,DTS Ltd.
Jinju,"Korea, Republic of",58.65.118.29,35.192800000000005,128.0847,KR,Seokyung Cable Television Co.. Ltd.,Seokyung Cable Television Co..LTD.
,"Korea, Republic of",211.246.182.1,37.56999999999999,126.98000000000002,KR,Seokyung Cable Television Co.. Ltd.,Seokyung Cable Television Co..LTD.
,"Korea, Republic of",211.246.166.1,37.56999999999999,126.98000000000002,KR,Seokyung Cable Television Co.. Ltd.,Seokyung Cable Television Co..LTD.
,,189.219.168.1,,,,,
Jinju,"Korea, Republic of",115.160.3.1,35.192800000000005,128.0847,KR,Seokyung Cable Television Co.. Ltd.,Seokyung Cable Television Co..LTD.
Kingston,United States,131.128.93.24,41.477300000000014,-71.5208,US,University of Rhode Island,University of Rhode Island
Monterrey,Mexico,201.172.12.225,25.66669999999999,-100.3167,MX,"Television Internacional, S.A. de C.V.","Television Internacional, S.A. de C.V."
Kirkland,United States,50.46.122.134,47.67269999999999,-122.1873,US,Frontier Communications,Frontier Communications
Monterrey,Mexico,187.161.208.1,25.66669999999999,-100.3167,MX,"Television Internacional, S.A. de C.V.","Television Internacional, S.A. de C.V."
San Jose,United States,50.131.149.197,37.33940000000001,-121.89500000000001,US,Comcast Cable,Comcast Cable
,,189.219.88.1,,,,,
,"Korea, Republic of",211.246.248.1,37.56999999999999,126.98000000000002,KR,Seokyung Cable Television Co.. Ltd.,Seokyung Cable Television Co..LTD.
Jinju,"Korea, Republic of",58.65.125.34,35.192800000000005,128.0847,KR,Seokyung Cable Television Co.. Ltd.,Seokyung Cable Television Co..LTD.
Monterrey,Mexico,201.173.148.1,25.66669999999999,-100.3167,MX,"Television Internacional, S.A. de C.V.","Television Internacional, S.A. de C.V."
Jinju,"Korea, Republic of",124.153.197.1,35.192800000000005,128.0847,KR,Seokyung Cable Television Co.. Ltd.,Seokyung Cable Television Co..LTD.
Kingston,United States,131.128.93.24,41.477300000000014,-71.5208,US,University of Rhode Island,University of Rhode Island
,"Korea, Republic of",211.246.184.129,37.56999999999999,126.98000000000002,KR,Seokyung Cable Television Co.. Ltd.,Seokyung Cable Television Co..LTD.
,"Korea, Republic of",125.159.7.74,37.56999999999999,126.98000000000002,KR,Korea Telecom,Korea Telecom
,Canada,69.70.70.58,45.5,-73.5833,CA,Videotron Ltee,SAC Affaires VL
East Hartford,United States,64.251.60.231,41.77760000000001,-72.6214,US,State of Connecticut,State of Connecticut
Jinju,"Korea, Republic of",58.65.125.229,35.192800000000005,128.0847,KR,Seokyung Cable Television Co.. Ltd.,Seokyung Cable Television Co..LTD.
,"Korea, Republic of",211.246.253.105,37.56999999999999,126.98000000000002,KR,Seokyung Cable Television Co.. Ltd.,Seokyung Cable Television Co..LTD.
Monterrey,Mexico,189.218.213.113,25.66669999999999,-100.3167,MX,"Television Internacional, S.A. de C.V.","Television Internacional, S.A. de C.V."
,Thailand,119.46.136.106,15.0,100.0,TH,True Internet,True Internet
Monterrey,Mexico,187.160.178.1,25.66669999999999,-100.3167,MX,"Television Internacional, S.A. de C.V.","Television Internacional, S.A. de C.V."
Monterrey,Mexico,187.160.80.1,25.66669999999999,-100.3167,MX,"Television Internacional, S.A. de C.V.","Television Internacional, S.A. de C.V."
New York,United States,165.1.192.99,40.7517,-73.9972,US,The Associated Press,Associated Press Property Limited
Monterrey,Mexico,201.172.199.1,25.66669999999999,-100.3167,MX,"Television Internacional, S.A. de C.V.","Television Internacional, S.A. de C.V."
Monterrey,Mexico,201.173.91.1,25.66669999999999,-100.3167,MX,"Television Internacional, S.A. de C.V.","Television Internacional, S.A. de C.V."
Kingston,United States,131.128.93.22,41.477300000000014,-71.5208,US,University of Rhode Island,University of Rhode Island
,United Kingdom,86.188.234.204,51.5,-0.12999999999999545,GB,BT,BT
Monterrey,Mexico,187.160.92.1,25.66669999999999,-100.3167,MX,"Television Internacional, S.A. de C.V.","Television Internacional, S.A. de C.V."
Tucson,United States,64.119.40.42,32.2217,-110.9265,US,"Simply Bits, LLC","Simply Bits, LLC"
,Mexico,207.248.39.113,19.430000000000007,-99.13,MX,"Television Internacional, S.A. de C.V.","Television Internacional, S.A. de C.V."
Lincoln,United States,64.89.188.52,40.80000000000001,-96.667,US,University of Nebraska,University of Nebraska
,"Korea, Republic of",211.246.174.1,37.56999999999999,126.98000000000002,KR,Seokyung Cable Television Co.. Ltd.,Seokyung Cable Television Co..LTD.
Jinju,"Korea, Republic of",58.65.126.98,35.192800000000005,128.0847,KR,Seokyung Cable Television Co.. Ltd.,Seokyung Cable Television Co..LTD.
,"Korea, Republic of",211.246.147.1,37.56999999999999,126.98000000000002,KR,Seokyung Cable Television Co.. Ltd.,Seokyung Cable Television Co..LTD.
,Germany,178.19.211.14,51.0,9.0,DE,Hofnetz &IT Services GmbH,Hofnetz &IT Services GmbH
,"Bonaire, Sint Eustatius and Saba",200.6.144.72,12.21289999999999,-68.2944,BQ,Telefonia Bonairiano N.V.,Telefonia Bonairiano N.V.
,Mexico,201.151.157.245,25.66669999999999,-100.4,MX,"Alestra, S. de R.L. de C.V.","Alestra, S. de R.L. de C.V."
Monterrey,Mexico,189.218.166.1,25.66669999999999,-100.3167,MX,"Television Internacional, S.A. de C.V.","Television Internacional, S.A. de C.V."
Monterrey,Mexico,187.161.218.9,25.66669999999999,-100.3167,MX,"Television Internacional, S.A. de C.V.","Television Internacional, S.A. de C.V."
Silver Spring,United States,192.104.54.164,38.990700000000004,-77.0261,US,CenturyLink,CenturyLink
Monterrey,Mexico,187.161.180.1,25.66669999999999,-100.3167,MX,"Television Internacional, S.A. de C.V.","Television Internacional, S.A. de C.V."
,Mexico,187.160.104.1,26.11670000000001,-100.8667,MX,"Television Internacional, S.A. de C.V.","Television Internacional, S.A. de C.V."
Denver,United States,67.134.161.213,39.7388,-104.4083,US,CenturyLink,CenturyLink
,"Korea, Republic of",211.246.253.61,37.56999999999999,126.98000000000002,KR,Seokyung Cable Television Co.. Ltd.,Seokyung Cable Television Co..LTD.
College Station,United States,165.95.101.35,30.65209999999999,-96.341,US,Texas A&M University,Texas A&M University
Jinju,"Korea, Republic of",58.65.126.69,35.192800000000005,128.0847,KR,Seokyung Cable Television Co.. Ltd.,Seokyung Cable Television Co..LTD.
Jinju,"Korea, Republic of",58.65.124.1,35.192800000000005,128.0847,KR,Seokyung Cable Television Co.. Ltd.,Seokyung Cable Television Co..LTD.
,Mexico,207.248.43.49,19.430000000000007,-99.13,MX,"Television Internacional, S.A. de C.V.","Television Internacional, S.A. de C.V."
,Netherlands,90.145.33.66,52.5,5.75,NL,Unet B.V.,Unet B.V.
Monterrey,Mexico,201.172.12.65,25.66669999999999,-100.3167,MX,"Television Internacional, S.A. de C.V.","Television Internacional, S.A. de C.V."
Monterrey,Mexico,187.160.168.1,25.66669999999999,-100.3167,MX,"Television Internacional, S.A. de C.V.","Television Internacional, S.A. de C.V."
Jinju,"Korea, Republic of",58.65.125.158,35.192800000000005,128.0847,KR,Seokyung Cable Television Co.. Ltd.,Seokyung Cable Television Co..LTD.
Jinju,"Korea, Republic of",124.153.180.1,35.192800000000005,128.0847,KR,Seokyung Cable Television Co.. Ltd.,Seokyung Cable Television Co..LTD.
Monterrey,Mexico,187.161.140.1,25.66669999999999,-100.3167,MX,"Television Internacional, S.A. de C.V.","Television Internacional, S.A. de C.V."
Ulsan,"Korea, Republic of",112.109.37.126,35.53720000000001,129.31670000000003,KR,Joyful Communication Network,Ulsan Jung-Ang Broadcasting Network
,"Korea, Republic of",211.246.253.225,37.56999999999999,126.98000000000002,KR,Seokyung Cable Television Co.. Ltd.,Seokyung Cable Television Co..LTD.
,United Kingdom,92.29.145.45,51.5,-0.12999999999999545,GB,TalkTalk,TalkTalk
Adelaide,Australia,121.45.15.233,-34.92869999999999,138.59859999999998,AU,Internode,Internode
Monterrey,Mexico,187.160.46.1,25.66669999999999,-100.3167,MX,"Television Internacional, S.A. de C.V.","Television Internacional, S.A. de C.V."
,Italy,2.228.20.120,42.83330000000001,12.833300000000008,IT,Fastweb,Fastweb
,United States,38.96.244.21,38.0,-97.0,US,Cogent Communications,Multimedios Redes / Television Internacional SA de
Jakarta,Indonesia,139.0.6.90,-6.1743999999999915,106.82940000000002,ID,Fastnet,LINKNET
Monterrey,Mexico,189.218.254.1,25.66669999999999,-100.3167,MX,"Television Internacional, S.A. de C.V.","Television Internacional, S.A. de C.V."
,Germany,80.92.48.184,51.0,9.0,DE,Stellar PCS GmbH,"Stellar PCS GmbH, Infrastructure"
Jinju,"Korea, Republic of",115.160.46.1,35.192800000000005,128.0847,KR,Seokyung Cable Television Co.. Ltd.,Seokyung Cable Television Co..LTD.
,Hong Kong,210.177.72.94,22.25,114.16669999999999,HK,PCCW IMSBiz,PCCW Business Internet Access
,Taiwan,211.72.114.131,23.5,121.0,TW,"CHTD, Chunghwa Telecom Co., Ltd.","CHTD, Chunghwa Telecom Co., Ltd."
Parker,United States,72.19.170.21,39.5076,-104.6773,US,JAB Wireless,JAB Wireless
Monterrey,Mexico,201.173.236.1,25.66669999999999,-100.3167,MX,"Television Internacional, S.A. de C.V.","Television Internacional, S.A. de C.V."
,Mexico,207.248.39.173,19.430000000000007,-99.13,MX,"Television Internacional, S.A. de C.V.","Television Internacional, S.A. de C.V."
,Austria,46.255.178.20,47.33330000000001,13.333300000000008,AT,Neo Telecoms S.A.S.,Neo Telecoms S.A.S.
Jinju,"Korea, Republic of",124.153.188.1,35.192800000000005,128.0847,KR,Seokyung Cable Television Co.. Ltd.,Seokyung Cable Television Co..LTD.
Jinju,"Korea, Republic of",124.153.146.1,35.192800000000005,128.0847,KR,Seokyung Cable Television Co.. Ltd.,Seokyung Cable Television Co..LTD.
,"Korea, Republic of",211.246.129.1,37.56999999999999,126.98000000000002,KR,Seokyung Cable Television Co.. Ltd.,Seokyung Cable Television Co..LTD.
,"Korea, Republic of",211.246.240.193,37.56999999999999,126.98000000000002,KR,Seokyung Cable Television Co.. Ltd.,Seokyung Cable Television Co..LTD.
Monterrey,Mexico,187.160.166.1,25.66669999999999,-100.3167,MX,"Television Internacional, S.A. de C.V.","Television Internacional, S.A. de C.V."
Jinju,"Korea, Republic of",124.153.135.1,35.192800000000005,128.0847,KR,Seokyung Cable Television Co.. Ltd.,Seokyung Cable Television Co..LTD.
Monterrey,Mexico,201.173.250.1,25.66669999999999,-100.3167,MX,"Television Internacional, S.A. de C.V.","Television Internacional, S.A. de C.V."
,"Korea, Republic of",211.246.254.86,37.56999999999999,126.98000000000002,KR,Seokyung Cable Television Co.. Ltd.,Seokyung Cable Television Co..LTD.
Northridge,United States,130.166.238.202,33.78659999999999,-118.2987,US,"California State University, Northridge","California State University, Northridge"
Jinju,"Korea, Republic of",124.153.129.1,35.192800000000005,128.0847,KR,Seokyung Cable Television Co.. Ltd.,Seokyung Cable Television Co..LTD.
,"Korea, Republic of",211.246.181.1,37.56999999999999,126.98000000000002,KR,Seokyung Cable Television Co.. Ltd.,Seokyung Cable Television Co..LTD.
,Mexico,207.248.55.105,19.430000000000007,-99.13,MX,"Television Internacional, S.A. de C.V.","Television Internacional, S.A. de C.V."
Monterrey,Mexico,187.161.152.1,25.66669999999999,-100.3167,MX,"Television Internacional, S.A. de C.V.","Television Internacional, S.A. de C.V."
,"Korea, Republic of",211.246.253.49,37.56999999999999,126.98000000000002,KR,Seokyung Cable Television Co.. Ltd.,Seokyung Cable Television Co..LTD.
Monterrey,Mexico,201.173.205.1,25.66669999999999,-100.3167,MX,"Television Internacional, S.A. de C.V.","Television Internacional, S.A. de C.V."
Monterrey,Mexico,187.160.112.1,25.66669999999999,-100.3167,MX,"Television Internacional, S.A. de C.V.","Television Internacional, S.A. de C.V."
Jinju,"Korea, Republic of",124.153.208.1,35.192800000000005,128.0847,KR,Seokyung Cable Television Co.. Ltd.,Seokyung Cable Television Co..LTD.
Jinju,"Korea, Republic of",124.153.200.1,35.192800000000005,128.0847,KR,Seokyung Cable Television Co.. Ltd.,Seokyung Cable Television Co..LTD.
Monterrey,Mexico,201.173.214.1,25.66669999999999,-100.3167,MX,"Television Internacional, S.A. de C.V.","Television Internacional, S.A. de C.V."
,Mexico,201.151.157.249,25.66669999999999,-100.4,MX,"Alestra, S. de R.L. de C.V.","Alestra, S. de R.L. de C.V."
,"Korea, Republic of",211.246.253.9,37.56999999999999,126.98000000000002,KR,Seokyung Cable Television Co.. Ltd.,Seokyung Cable Television Co..LTD.
Jinju,"Korea, Republic of",124.153.252.93,35.192800000000005,128.0847,KR,Seokyung Cable Television Co.. Ltd.,Seokyung Cable Television Co..LTD.
,"Korea, Republic of",211.246.240.9,37.56999999999999,126.98000000000002,KR,Seokyung Cable Television Co.. Ltd.,Seokyung Cable Television Co..LTD.
,"Korea, Republic of",211.246.254.170,37.56999999999999,126.98000000000002,KR,Seokyung Cable Television Co.. Ltd.,Seokyung Cable Television Co..LTD.
,"Bonaire, Sint Eustatius and Saba",200.6.144.70,12.21289999999999,-68.2944,BQ,Telefonia Bonairiano N.V.,Telefonia Bonairiano N.V.
Southampton,United Kingdom,92.18.6.243,50.900000000000006,-1.4000000000000057,GB,TalkTalk,TalkTalk
Torrevieja,Spain,84.232.18.35,37.9787,-0.6821999999999946,ES,ServiHosting Networks S.L.,ServiHosting Networks S.L.
Monterrey,Mexico,201.172.200.1,25.66669999999999,-100.3167,MX,"Television Internacional, S.A. de C.V.","Television Internacional, S.A. de C.V."
London,United Kingdom,193.203.84.181,51.51419999999999,-0.09309999999999263,GB,Sohonet Limited,Sohonet Limited
,,189.219.192.1,,,,,
Monterrey,Mexico,187.161.4.1,25.66669999999999,-100.3167,MX,"Television Internacional, S.A. de C.V.","Television Internacional, S.A. de C.V."
Monterrey,Mexico,187.161.220.166,25.66669999999999,-100.3167,MX,"Television Internacional, S.A. de C.V.","Television Internacional, S.A. de C.V."
Monterrey,Mexico,187.161.213.1,25.66669999999999,-100.3167,MX,"Television Internacional, S.A. de C.V.","Television Internacional, S.A. de C.V."
,Indonesia,203.190.243.4,-5.0,120.0,ID,PT Detik Ini Juga,PT. Detik Ini JUga
Beograd,Serbia,213.253.118.36,44.8186,20.468099999999993,RS,SOFTNET d.o.o.,SOFTNET d.o.o.
Tokyo,Japan,27.120.226.164,35.685,139.7514,JP,Dream Train Internet,Dream Train Internet
London,United Kingdom,193.203.84.178,51.51419999999999,-0.09309999999999263,GB,Sohonet Limited,Sohonet Limited
,Bulgaria,46.40.73.250,43.0,25.0,BG,Bulsatcom AD,Bulsatcom AD
Mexico,Mexico,201.140.103.161,19.434200000000004,-99.1386,MX,"Operbes, S.A. de C.V.",Ingenieria Ip Bestel
,"Korea, Republic of",211.40.156.171,37.56999999999999,126.98000000000002,KR,LG DACOM Corporation,LG DACOM Corporation
,Sweden,213.64.26.241,59.30000000000001,17.966700000000003,SE,TeliaSonera AB,Telia Network Services
London,United Kingdom,193.203.84.181,51.51419999999999,-0.09309999999999263,GB,Sohonet Limited,Sohonet Limited
Monterrey,Mexico,201.173.109.233,25.66669999999999,-100.3167,MX,"Television Internacional, S.A. de C.V.","Television Internacional, S.A. de C.V."
,"Korea, Republic of",211.58.154.195,37.56999999999999,126.98000000000002,KR,SK Broadband Co Ltd,SK Broadband Co Ltd
Golden,United States,72.42.95.21,39.84360000000001,-105.3765,US,JAB Wireless,JAB Wireless
Monterrey,Mexico,187.161.251.161,25.66669999999999,-100.3167,MX,"Television Internacional, S.A. de C.V.","Television Internacional, S.A. de C.V."
,"Korea, Republic of",211.246.253.241,37.56999999999999,126.98000000000002,KR,Seokyung Cable Television Co.. Ltd.,Seokyung Cable Television Co..LTD.
,Taiwan,211.72.114.131,23.5,121.0,TW,"CHTD, Chunghwa Telecom Co., Ltd.","CHTD, Chunghwa Telecom Co., Ltd."
Solna,Sweden,37.46.160.207,59.36670000000001,18.016699999999986,SE,Ownit AB,Ownit AB
Monterrey,Mexico,187.161.228.1,25.66669999999999,-100.3167,MX,"Television Internacional, S.A. de C.V.","Television Internacional, S.A. de C.V."
,United States,184.188.130.93,38.0,-97.0,US,Cox Communications,Cox Communications
Monterrey,Mexico,187.161.250.97,25.66669999999999,-100.3167,MX,"Television Internacional, S.A. de C.V.","Television Internacional, S.A. de C.V."
,Netherlands,90.145.33.67,52.5,5.75,NL,Unet B.V.,Unet B.V.
Monterrey,Mexico,189.218.177.1,25.66669999999999,-100.3167,MX,"Television Internacional, S.A. de C.V.","Television Internacional, S.A. de C.V."
Monterrey,Mexico,189.218.105.1,25.66669999999999,-100.3167,MX,"Television Internacional, S.A. de C.V.","Television Internacional, S.A. de C.V."
,Mexico,207.248.55.104,19.430000000000007,-99.13,MX,"Television Internacional, S.A. de C.V.","Television Internacional, S.A. de C.V."
,United States,38.104.211.162,38.0,-97.0,US,Cogent Communications,UCLA Film & Television Archive
Monterrey,Mexico,201.173.0.169,25.66669999999999,-100.3167,MX,"Television Internacional, S.A. de C.V.","Television Internacional, S.A. de C.V."
Monterrey,Mexico,187.161.150.1,25.66669999999999,-100.3167,MX,"Television Internacional, S.A. de C.V.","Television Internacional, S.A. de C.V."
,"Korea, Republic of",211.246.240.89,37.56999999999999,126.98000000000002,KR,Seokyung Cable Television Co.. Ltd.,Seokyung Cable Television Co..LTD.
Jinju,"Korea, Republic of",58.65.125.57,35.192800000000005,128.0847,KR,Seokyung Cable Television Co.. Ltd.,Seokyung Cable Television Co..LTD.
Monterrey,Mexico,187.161.220.26,25.66669999999999,-100.3167,MX,"Television Internacional, S.A. de C.V.","Television Internacional, S.A. de C.V."
,United Kingdom,82.31.162.4,51.5,-0.12999999999999545,GB,Virgin Media,Virgin Media
Monterrey,Mexico,201.173.0.129,25.66669999999999,-100.3167,MX,"Television Internacional, S.A. de C.V.","Television Internacional, S.A. de C.V."
,United States,205.233.13.155,38.0,-97.0,US,Saving Call LLC,Saving Call LLC
College Station,United States,165.95.101.33,30.65209999999999,-96.341,US,Texas A&M University,Texas A&M University
,India,14.140.150.42,20.0,77.0,IN,TATA Communications,TATA Communications
,Denmark,94.127.53.19,56.0,10.0,DK,IP Vision A/S,IP Vision A/S
Toronto,Canada,24.114.226.84,43.66669999999999,-79.4167,CA,Rogers Cable,Rogers Cable
,Mexico,207.248.39.81,19.430000000000007,-99.13,MX,"Television Internacional, S.A. de C.V.","Television Internacional, S.A. de C.V."
Jinju,"Korea, Republic of",124.153.185.1,35.192800000000005,128.0847,KR,Seokyung Cable Television Co.. Ltd.,Seokyung Cable Television Co..LTD.
,Turkey,95.0.242.98,39.0,35.0,TR,Turk Telekom,Turk Telekom
Jinju,"Korea, Republic of",124.153.187.1,35.192800000000005,128.0847,KR,Seokyung Cable Television Co.. Ltd.,Seokyung Cable Television Co..LTD.
Monterrey,Mexico,201.172.15.241,25.66669999999999,-100.3167,MX,"Television Internacional, S.A. de C.V.","Television Internacional, S.A. de C.V."
Jinju,"Korea, Republic of",58.65.125.2,35.192800000000005,128.0847,KR,Seokyung Cable Television Co.. Ltd.,Seokyung Cable Television Co..LTD.
,,189.219.80.1,,,,,
Jinju,"Korea, Republic of",124.153.252.141,35.192800000000005,128.0847,KR,Seokyung Cable Television Co.. Ltd.,Seokyung Cable Television Co..LTD.
,Mexico,201.172.32.1,25.716700000000003,-103.2833,MX,"Television Internacional, S.A. de C.V.","Television Internacional, S.A. de C.V."
Monterrey,Mexico,187.161.222.1,25.66669999999999,-100.3167,MX,"Television Internacional, S.A. de C.V.","Television Internacional, S.A. de C.V."
Monterrey,Mexico,189.218.184.1,25.66669999999999,-100.3167,MX,"Television Internacional, S.A. de C.V.","Television Internacional, S.A. de C.V."
Jinju,"Korea, Republic of",124.153.184.1,35.192800000000005,128.0847,KR,Seokyung Cable Television Co.. Ltd.,Seokyung Cable Television Co..LTD.
Jinju,"Korea, Republic of",58.65.126.46,35.192800000000005,128.0847,KR,Seokyung Cable Television Co.. Ltd.,Seokyung Cable Television Co..LTD.
Monterrey,Mexico,189.218.213.17,25.66669999999999,-100.3167,MX,"Television Internacional, S.A. de C.V.","Television Internacional, S.A. de C.V."
Geneve,Switzerland,213.173.175.117,46.19560000000001,6.1480999999999995,CH,COLT Technology Services Group Limited,RTS Radio Television Suisse
,"Korea, Republic of",211.246.141.1,37.56999999999999,126.98000000000002,KR,Seokyung Cable Television Co.. Ltd.,Seokyung Cable Television Co..LTD.
,Mexico,207.248.39.65,19.430000000000007,-99.13,MX,"Television Internacional, S.A. de C.V.","Television Internacional, S.A. de C.V."
Monterrey,Mexico,201.162.32.1,25.66669999999999,-100.3167,MX,"Cablevision de Saltillo, S.A. de C.V.","Television Internacional, S.A. de C.V."
Bangkok,Thailand,203.209.101.218,13.75399999999999,100.50139999999999,TH,KSC Commercial Internet Co. Ltd.,KSC Commercial Internet Co. Ltd.
Monterrey,Mexico,189.218.210.1,25.66669999999999,-100.3167,MX,"Television Internacional, S.A. de C.V.","Television Internacional, S.A. de C.V."
,"Korea, Republic of",211.246.201.1,37.56999999999999,126.98000000000002,KR,Seokyung Cable Television Co.. Ltd.,Seokyung Cable Television Co..LTD.
Jinju,"Korea, Republic of",124.153.193.1,35.192800000000005,128.0847,KR,Seokyung Cable Television Co.. Ltd.,Seokyung Cable Television Co..LTD.
Monterrey,Mexico,201.173.186.1,25.66669999999999,-100.3167,MX,"Television Internacional, S.A. de C.V.","Television Internacional, S.A. de C.V."
Sway,United Kingdom,92.18.36.85,50.7833,-1.5999999999999943,GB,TalkTalk,TalkTalk
,India,119.82.68.200,20.0,77.0,IN,Spectranet Ltd,Citycom Networks Pvt
Jinju,"Korea, Republic of",115.160.9.1,35.192800000000005,128.0847,KR,Seokyung Cable Television Co.. Ltd.,Seokyung Cable Television Co..LTD.
Jinju,"Korea, Republic of",124.153.233.1,35.192800000000005,128.0847,KR,Seokyung Cable Television Co.. Ltd.,Seokyung Cable Television Co..LTD.
Monterrey,Mexico,189.218.212.225,25.66669999999999,-100.3167,MX,"Television Internacional, S.A. de C.V.","Television Internacional, S.A. de C.V."
Victoria,Mexico,187.161.20.1,25.75,-99.95,MX,"Television Internacional, S.A. de C.V.","Television Internacional, S.A. de C.V."
Jinju,"Korea, Republic of",124.153.227.1,35.192800000000005,128.0847,KR,Seokyung Cable Television Co.. Ltd.,Seokyung Cable Television Co..LTD.
Jinju,"Korea, Republic of",124.153.131.1,35.192800000000005,128.0847,KR,Seokyung Cable Television Co.. Ltd.,Seokyung Cable Television Co..LTD.
Monterrey,Mexico,189.218.213.209,25.66669999999999,-100.3167,MX,"Television Internacional, S.A. de C.V.","Television Internacional, S.A. de C.V."
Monterrey,Mexico,187.160.188.1,25.66669999999999,-100.3167,MX,"Television Internacional, S.A. de C.V.","Television Internacional, S.A. de C.V."
,Mexico,207.248.34.161,19.430000000000007,-99.13,MX,"Television Internacional, S.A. de C.V.","Television Internacional, S.A. de C.V."
Altamira,Mexico,201.172.183.1,22.400000000000006,-97.9167,MX,"Television Internacional, S.A. de C.V.","Television Internacional, S.A. de C.V."
Jinju,"Korea, Republic of",58.65.125.114,35.192800000000005,128.0847,KR,Seokyung Cable Television Co.. Ltd.,Seokyung Cable Television Co..LTD.
Jinju,"Korea, Republic of",124.153.128.1,35.192800000000005,128.0847,KR,Seokyung Cable Television Co.. Ltd.,Seokyung Cable Television Co..LTD.
,Mexico,207.248.43.121,19.430000000000007,-99.13,MX,"Television Internacional, S.A. de C.V.","Television Internacional, S.A. de C.V."
Monterrey,Mexico,201.173.0.145,25.66669999999999,-100.3167,MX,"Television Internacional, S.A. de C.V.","Television Internacional, S.A. de C.V."
Monterrey,Mexico,201.173.165.1,25.66669999999999,-100.3167,MX,"Television Internacional, S.A. de C.V.","Television Internacional, S.A. de C.V."
Monterrey,Mexico,201.173.82.1,25.66669999999999,-100.3167,MX,"Television Internacional, S.A. de C.V.","Television Internacional, S.A. de C.V."
Monterrey,Mexico,187.161.220.22,25.66669999999999,-100.3167,MX,"Television Internacional, S.A. de C.V.","Television Internacional, S.A. de C.V."
,,189.219.160.1,,,,,
Monterrey,Mexico,201.172.185.1,25.66669999999999,-100.3167,MX,"Television Internacional, S.A. de C.V.","Television Internacional, S.A. de C.V."
Monterrey,Mexico,201.173.36.1,25.66669999999999,-100.3167,MX,"Television Internacional, S.A. de C.V.","Television Internacional, S.A. de C.V."
Jinju,"Korea, Republic of",58.65.126.86,35.192800000000005,128.0847,KR,Seokyung Cable Television Co.. Ltd.,Seokyung Cable Television Co..LTD.
Monterrey,Mexico,201.173.187.1,25.66669999999999,-100.3167,MX,"Television Internacional, S.A. de C.V.","Television Internacional, S.A. de C.V."
,"Korea, Republic of",211.246.253.133,37.56999999999999,126.98000000000002,KR,Seokyung Cable Television Co.. Ltd.,Seokyung Cable Television Co..LTD.
,"Korea, Republic of",211.246.175.5,37.56999999999999,126.98000000000002,KR,Seokyung Cable Television Co.. Ltd.,Seokyung Cable Television Co..LTD.
Monterrey,Mexico,201.172.2.25,25.66669999999999,-100.3167,MX,"Television Internacional, S.A. de C.V.","Television Internacional, S.A. de C.V."
,Albania,95.107.234.4,41.327499999999986,19.818900000000014,AL,Albanian Satellite Communications sh.p.k.,Albanian Satellite Communications sh.p.k.
Jinju,"Korea, Republic of",124.153.130.1,35.192800000000005,128.0847,KR,Seokyung Cable Television Co.. Ltd.,Seokyung Cable Television Co..LTD.
Monterrey,Mexico,187.160.179.97,25.66669999999999,-100.3167,MX,"Television Internacional, S.A. de C.V.","Television Internacional, S.A. de C.V."
Monterrey,Mexico,201.173.109.65,25.66669999999999,-100.3167,MX,"Television Internacional, S.A. de C.V.","Television Internacional, S.A. de C.V."
Jinju,"Korea, Republic of",58.65.126.122,35.192800000000005,128.0847,KR,Seokyung Cable Television Co.. Ltd.,Seokyung Cable Television Co..LTD.
Monterrey,Mexico,201.173.79.1,25.66669999999999,-100.3167,MX,"Television Internacional, S.A. de C.V.","Television Internacional, S.A. de C.V."
Jinju,"Korea, Republic of",58.65.125.89,35.192800000000005,128.0847,KR,Seokyung Cable Television Co.. Ltd.,Seokyung Cable Television Co..LTD.
,,189.219.16.1,,,,,
Jinju,"Korea, Republic of",124.153.215.1,35.192800000000005,128.0847,KR,Seokyung Cable Television Co.. Ltd.,Seokyung Cable Television Co..LTD.
Monterrey,Mexico,201.158.90.1,25.66669999999999,-100.3167,MX,"Cablevision de Saltillo, S.A. de C.V.","Cablevision de Saltillo, S.A. de C.V."
Monterrey,Mexico,201.173.66.1,25.66669999999999,-100.3167,MX,"Television Internacional, S.A. de C.V.","Television Internacional, S.A. de C.V."
,Mexico,207.248.39.97,19.430000000000007,-99.13,MX,"Television Internacional, S.A. de C.V.","Television Internacional, S.A. de C.V."
Jinju,"Korea, Republic of",124.153.252.161,35.192800000000005,128.0847,KR,Seokyung Cable Television Co.. Ltd.,Seokyung Cable Television Co..LTD.
,Canada,67.223.128.169,45.5,-73.5833,CA,Maskatel,Maskatel
,"Korea, Republic of",211.246.240.65,37.56999999999999,126.98000000000002,KR,Seokyung Cable Television Co.. Ltd.,Seokyung Cable Television Co..LTD.
Mexico,Mexico,189.202.207.94,19.434200000000004,-99.1386,MX,"Operbes, S.A. de C.V.","Operbes, S.A. de C.V."
,United States,184.188.130.90,38.0,-97.0,US,Cox Communications,Cox Communications
Monroe,United States,108.59.208.250,33.78479999999999,-83.6731,US,City of Monroe,City of Monroe
Monterrey,Mexico,201.172.0.72,25.66669999999999,-100.3167,MX,"Television Internacional, S.A. de C.V.","Television Internacional, S.A. de C.V."
Monterrey,Mexico,201.172.240.1,25.66669999999999,-100.3167,MX,"Television Internacional, S.A. de C.V.","Television Internacional, S.A. de C.V."
,,189.219.40.1,,,,,
Monterrey,Mexico,201.173.202.1,25.66669999999999,-100.3167,MX,"Television Internacional, S.A. de C.V.","Television Internacional, S.A. de C.V."
Hillingdon,United Kingdom,86.180.161.24,51.516699999999986,-0.44999999999998863,GB,BT,BT
Fairport,United States,63.139.75.132,43.10050000000001,-77.426,US,PAETEC Communications,All Mobile Video
,United States,184.188.130.92,38.0,-97.0,US,Cox Communications,Cox Communications
,Mexico,207.248.39.101,19.430000000000007,-99.13,MX,"Television Internacional, S.A. de C.V.","Television Internacional, S.A. de C.V."
Monterrey,Mexico,189.218.228.1,25.66669999999999,-100.3167,MX,"Television Internacional, S.A. de C.V.","Television Internacional, S.A. de C.V."
London,United Kingdom,193.203.84.178,51.51419999999999,-0.09309999999999263,GB,Sohonet Limited,Sohonet Limited
Jinju,"Korea, Republic of",58.65.107.1,35.192800000000005,128.0847,KR,Seokyung Cable Television Co.. Ltd.,Seokyung Cable Television Co..LTD.
,"Korea, Republic of",211.246.144.1,37.56999999999999,126.98000000000002,KR,Seokyung Cable Television Co.. Ltd.,Seokyung Cable Television Co..LTD.
,,189.219.120.1,,,,,
,"Korea, Republic of",211.246.252.25,37.56999999999999,126.98000000000002,KR,Seokyung Cable Television Co.. Ltd.,Seokyung Cable Television Co..LTD.
Monterrey,Mexico,187.161.220.205,25.66669999999999,-100.3167,MX,"Television Internacional, S.A. de C.V.","Television Internacional, S.A. de C.V."
,Senegal,213.154.93.17,13.333300000000008,-13.766699999999986,SN,Societe Nationale Des Telecommunications Du Senega,Societe Nationale Des Telecommunications Du Senega
Monterrey,Mexico,201.173.88.1,25.66669999999999,-100.3167,MX,"Television Internacional, S.A. de C.V.","Television Internacional, S.A. de C.V."
Chelsea,United States,173.13.101.3,42.399699999999996,-71.0316,US,Comcast Business Communications,Comcast Business Communications
Monterrey,Mexico,201.173.109.201,25.66669999999999,-100.3167,MX,"Television Internacional, S.A. de C.V.","Television Internacional, S.A. de C.V."
Monterrey,Mexico,201.172.0.153,25.66669999999999,-100.3167,MX,"Television Internacional, S.A. de C.V.","Television Internacional, S.A. de C.V."
,Mexico,201.151.181.2,25.66669999999999,-100.4,MX,"Alestra, S. de R.L. de C.V.","Alestra, S. de R.L. de C.V."
Jinju,"Korea, Republic of",124.153.190.1,35.192800000000005,128.0847,KR,Seokyung Cable Television Co.. Ltd.,Seokyung Cable Television Co..LTD.
,Mexico,201.151.161.170,25.66669999999999,-100.4,MX,"Alestra, S. de R.L. de C.V.","Alestra, S. de R.L. de C.V."
Jinju,"Korea, Republic of",58.65.126.126,35.192800000000005,128.0847,KR,Seokyung Cable Television Co.. Ltd.,Seokyung Cable Television Co..LTD.
,,189.219.4.1,,,,,
Wisconsin Rapids,United States,206.176.200.178,44.33600000000001,-89.7403,US,"Datawave Technologies, LLC","Datawave Technologies, LLC"
Monterrey,Mexico,201.173.248.1,25.66669999999999,-100.3167,MX,"Television Internacional, S.A. de C.V.","Television Internacional, S.A. de C.V."
Monterrey,Mexico,189.218.242.1,25.66669999999999,-100.3167,MX,"Television Internacional, S.A. de C.V.","Television Internacional, S.A. de C.V."
Jinju,"Korea, Republic of",124.153.150.1,35.192800000000005,128.0847,KR,Seokyung Cable Television Co.. Ltd.,Seokyung Cable Television Co..LTD.
,Mexico,207.248.60.209,19.430000000000007,-99.13,MX,"Television Internacional, S.A. de C.V.",Television Internacional S.A. de C.V.
Jinju,"Korea, Republic of",124.153.209.1,35.192800000000005,128.0847,KR,Seokyung Cable Television Co.. Ltd.,Seokyung Cable Television Co..LTD.
Jinju,"Korea, Republic of",58.65.126.73,35.192800000000005,128.0847,KR,Seokyung Cable Television Co.. Ltd.,Seokyung Cable Television Co..LTD.
Monterrey,Mexico,187.161.220.92,25.66669999999999,-100.3167,MX,"Television Internacional, S.A. de C.V.","Television Internacional, S.A. de C.V."
,"Korea, Republic of",211.246.254.82,37.56999999999999,126.98000000000002,KR,Seokyung Cable Television Co.. Ltd.,Seokyung Cable Television Co..LTD.
Jinju,"Korea, Republic of",124.153.224.1,35.192800000000005,128.0847,KR,Seokyung Cable Television Co.. Ltd.,Seokyung Cable Television Co..LTD.
,"Korea, Republic of",211.246.251.17,37.56999999999999,126.98000000000002,KR,Seokyung Cable Television Co.. Ltd.,Seokyung Cable Television Co..LTD.
Monterrey,Mexico,187.161.220.72,25.66669999999999,-100.3167,MX,"Television Internacional, S.A. de C.V.","Television Internacional, S.A. de C.V."
,Mexico,207.248.39.193,19.430000000000007,-99.13,MX,"Television Internacional, S.A. de C.V.","Television Internacional, S.A. de C.V."
Truro,United Kingdom,80.47.122.165,50.26169999999999,-5.043299999999988,GB,Tiscali UK Limited,Tiscali UK Limited
Monterrey,Mexico,187.160.32.1,25.66669999999999,-100.3167,MX,"Television Internacional, S.A. de C.V.","Television Internacional, S.A. de C.V."
Monterrey,Mexico,187.161.220.35,25.66669999999999,-100.3167,MX,"Television Internacional, S.A. de C.V.","Television Internacional, S.A. de C.V."
Monterrey,Mexico,189.218.192.1,25.66669999999999,-100.3167,MX,"Television Internacional, S.A. de C.V.","Television Internacional, S.A. de C.V."
,,189.219.152.1,,,,,
Monterrey,Mexico,187.161.178.1,25.66669999999999,-100.3167,MX,"Television Internacional, S.A. de C.V.","Television Internacional, S.A. de C.V."
,"Iran, Islamic Republic of",77.36.192.40,32.0,53.0,IR,IRIB (Islamic Republic of Iran Broadcasting),IRIB
,"Korea, Republic of",211.246.254.1,37.56999999999999,126.98000000000002,KR,Seokyung Cable Television Co.. Ltd.,Seokyung Cable Television Co..LTD.
Jinju,"Korea, Republic of",124.153.144.1,35.192800000000005,128.0847,KR,Seokyung Cable Television Co.. Ltd.,Seokyung Cable Television Co..LTD.
Vancouver,Canada,174.6.91.188,49.25,-123.13329999999999,CA,Shaw Communications,Shaw Communications
Monterrey,Mexico,189.218.162.1,25.66669999999999,-100.3167,MX,"Television Internacional, S.A. de C.V.","Television Internacional, S.A. de C.V."
Los Angeles,United States,99.110.240.30,34.0599,-118.3103,US,AT&T U-verse,AT&T U-verse
Monterrey,Mexico,187.161.219.1,25.66669999999999,-100.3167,MX,"Television Internacional, S.A. de C.V.","Television Internacional, S.A. de C.V."
,"Korea, Republic of",211.246.253.33,37.56999999999999,126.98000000000002,KR,Seokyung Cable Television Co.. Ltd.,Seokyung Cable Television Co..LTD.
Adelaide,Australia,118.210.183.29,-34.92869999999999,138.59859999999998,AU,Internode,Internode
,"Korea, Republic of",211.246.164.1,37.56999999999999,126.98000000000002,KR,Seokyung Cable Television Co.. Ltd.,Seokyung Cable Television Co..LTD.
Santiago,Chile,200.54.92.201,-33.44999999999999,-70.6667,CL,Ctc. Corp S.A. (telefonica Empresas),Ctc. Corp S.A. (telefonica Empresas)
Chesterfield,United States,208.172.128.194,38.650000000000006,-90.5334,US,Savvis,Savvis
,Chile,201.238.215.9,-30.0,-71.0,CL,Gtd Internet S.A.,Gtd Internet S.A.
Jinju,"Korea, Republic of",58.65.125.9,35.192800000000005,128.0847,KR,Seokyung Cable Television Co.. Ltd.,Seokyung Cable Television Co..LTD.
Salai,India,27.251.163.252,22.316699999999997,85.33330000000001,IN,Dishnet Wireless Limited,Dishnet Wireless Limited. Broadband Wireless
,"Korea, Republic of",125.159.7.74,37.56999999999999,126.98000000000002,KR,Korea Telecom,Korea Telecom
,Pakistan,103.24.98.197,30.0,70.0,PK,Ebone Network (PVT.) Limited,Ebone Network (PVT.) Limited
,"Korea, Republic of",211.246.251.221,37.56999999999999,126.98000000000002,KR,Seokyung Cable Television Co.. Ltd.,Seokyung Cable Television Co..LTD.
Jinju,"Korea, Republic of",124.153.245.1,35.192800000000005,128.0847,KR,Seokyung Cable Television Co.. Ltd.,Seokyung Cable Television Co..LTD.
Southampton,United Kingdom,92.18.18.106,50.900000000000006,-1.4000000000000057,GB,TalkTalk,TalkTalk
Monterrey,Mexico,187.161.45.97,25.66669999999999,-100.3167,MX,"Television Internacional, S.A. de C.V.","Television Internacional, S.A. de C.V."
,Nepal,110.34.13.100,28.0,84.0,NP,Subisu CableNet (Pvt) Ltd,Subisu CableNet (Pvt) Ltd
Ankara,Turkey,88.249.254.133,39.911699999999996,32.84030000000001,TR,Turk Telekom,Turk Telekom
,United Kingdom,80.251.172.221,51.5,-0.12999999999999545,GB,COLT Technology Services Group Limited,COLT Technology Services Group Limited
Dinh Cong,Vietnam,112.197.0.120,14.449999999999989,109.05000000000001,VN,SaiGon Tourist Cable Television,SaiGon Tourist cable Televition Company
Monterrey,Mexico,187.160.179.193,25.66669999999999,-100.3167,MX,"Television Internacional, S.A. de C.V.","Television Internacional, S.A. de C.V."
,"Korea, Republic of",211.246.145.1,37.56999999999999,126.98000000000002,KR,Seokyung Cable Television Co.. Ltd.,Seokyung Cable Television Co..LTD.
,"Korea, Republic of",211.246.149.1,37.56999999999999,126.98000000000002,KR,Seokyung Cable Television Co.. Ltd.,Seokyung Cable Television Co..LTD.
,Mexico,201.151.157.2,25.66669999999999,-100.4,MX,"Alestra, S. de R.L. de C.V.","Alestra, S. de R.L. de C.V."
Jinju,"Korea, Republic of",124.153.134.1,35.192800000000005,128.0847,KR,Seokyung Cable Television Co.. Ltd.,Seokyung Cable Television Co..LTD.
Zaragoza,Spain,80.30.223.97,41.64529999999999,-0.8848999999999876,ES,Telefonica de Espana,Telefonica de Espana
,United States,38.64.67.98,38.0,-97.0,US,Cogent Communications,Cogent Communications
,"Korea, Republic of",211.246.251.5,37.56999999999999,126.98000000000002,KR,Seokyung Cable Television Co.. Ltd.,Seokyung Cable Television Co..LTD.
Chattanooga,United States,74.205.133.10,35.04560000000001,-85.3097,US,EPB Telecom,EPB Telecom
Monterrey,Mexico,201.173.156.1,25.66669999999999,-100.3167,MX,"Television Internacional, S.A. de C.V.","Television Internacional, S.A. de C.V."
Monterrey,Mexico,201.173.204.1,25.66669999999999,-100.3167,MX,"Television Internacional, S.A. de C.V.","Television Internacional, S.A. de C.V."
,"Korea, Republic of",211.246.143.5,37.56999999999999,126.98000000000002,KR,Seokyung Cable Television Co.. Ltd.,Seokyung Cable Television Co..LTD.
,"Korea, Republic of",211.246.150.1,37.56999999999999,126.98000000000002,KR,Seokyung Cable Television Co.. Ltd.,Seokyung Cable Television Co..LTD.
Monterrey,Mexico,201.173.94.1,25.66669999999999,-100.3167,MX,"Television Internacional, S.A. de C.V.","Television Internacional, S.A. de C.V."
,"Korea, Republic of",211.246.254.5,37.56999999999999,126.98000000000002,KR,Seokyung Cable Television Co.. Ltd.,Seokyung Cable Television Co..LTD.
,Spain,62.14.190.98,40.0,-4.0,ES,Jazz Telecom S.A.,Jazz Telecom S.A.
Monterrey,Mexico,201.173.126.1,25.66669999999999,-100.3167,MX,"Television Internacional, S.A. de C.V.","Television Internacional, S.A. de C.V."
Monterrey,Mexico,201.172.0.161,25.66669999999999,-100.3167,MX,"Television Internacional, S.A. de C.V.","Television Internacional, S.A. de C.V."
,Nepal,116.90.229.54,28.0,84.0,NP,Websurfer Nepal,Websurfer Nepal Internet Service Provider
Monterrey,Mexico,201.172.222.1,25.66669999999999,-100.3167,MX,"Television Internacional, S.A. de C.V.","Television Internacional, S.A. de C.V."
Monterrey,Mexico,201.173.109.193,25.66669999999999,-100.3167,MX,"Television Internacional, S.A. de C.V.","Television Internacional, S.A. de C.V."
Monterrey,Mexico,201.172.8.1,25.66669999999999,-100.3167,MX,"Television Internacional, S.A. de C.V.","Television Internacional, S.A. de C.V."
Hanoi,Vietnam,203.210.197.113,21.033299999999997,105.85000000000002,VN,Vietnam Posts and Telecommunications (VNPT),VietNam Telecom National
Monterrey,Mexico,187.160.106.1,25.66669999999999,-100.3167,MX,"Television Internacional, S.A. de C.V.","Television Internacional, S.A. de C.V."
Jinju,"Korea, Republic of",58.65.126.82,35.192800000000005,128.0847,KR,Seokyung Cable Television Co.. Ltd.,Seokyung Cable Television Co..LTD.
Monterrey,Mexico,201.172.181.1,25.66669999999999,-100.3167,MX,"Television Internacional, S.A. de C.V.","Television Internacional, S.A. de C.V."
,,189.219.2.1,,,,,
,"Korea, Republic of",211.246.242.1,37.56999999999999,126.98000000000002,KR,Seokyung Cable Television Co.. Ltd.,Seokyung Cable Television Co..LTD.
,United States,70.91.146.215,38.0,-97.0,US,Comcast Business Communications,Comcast Business Communications
,United States,99.178.219.113,38.0,-97.0,US,AT&T Internet Services,AT&T Internet Services
Kingston,United States,131.128.93.26,41.477300000000014,-71.5208,US,University of Rhode Island,University of Rhode Island
,United States,38.64.67.98,38.0,-97.0,US,Cogent Communications,Cogent Communications
Jinju,"Korea, Republic of",124.153.194.1,35.192800000000005,128.0847,KR,Seokyung Cable Television Co.. Ltd.,Seokyung Cable Television Co..LTD.
Jinju,"Korea, Republic of",121.1.76.1,35.192800000000005,128.0847,KR,Seokyung Cable Television Co.. Ltd.,Seokyung Cable Television Co..LTD.
,United States,70.91.146.212,38.0,-97.0,US,Comcast Business Communications,Comcast Business Communications
,Mexico,201.151.157.233,25.66669999999999,-100.4,MX,"Alestra, S. de R.L. de C.V.","Alestra, S. de R.L. de C.V."
,"Korea, Republic of",211.246.154.1,37.56999999999999,126.98000000000002,KR,Seokyung Cable Television Co.. Ltd.,Seokyung Cable Television Co..LTD.
,"Korea, Republic of",211.246.195.1,37.56999999999999,126.98000000000002,KR,Seokyung Cable Television Co.. Ltd.,Seokyung Cable Television Co..LTD.
Tulsa,United States,74.213.44.202,36.23769999999999,-96.0341,US,Logix Communications,Logix Communications
Jinju,"Korea, Republic of",124.153.191.1,35.192800000000005,128.0847,KR,Seokyung Cable Television Co.. Ltd.,Seokyung Cable Television Co..LTD.
,"Korea, Republic of",211.246.215.1,37.56999999999999,126.98000000000002,KR,Seokyung Cable Television Co.. Ltd.,Seokyung Cable Television Co..LTD.
,"Korea, Republic of",211.246.255.193,37.56999999999999,126.98000000000002,KR,Seokyung Cable Television Co.. Ltd.,Seokyung Cable Television Co..LTD.
Monterrey,Mexico,187.160.22.1,25.66669999999999,-100.3167,MX,"Television Internacional, S.A. de C.V.","Television Internacional, S.A. de C.V."
Guadalajara,Mexico,187.245.182.85,20.66669999999999,-103.3333,MX,"Mega Cable, S.A. de C.V.","Mega Cable, S.A. de C.V."
Jinju,"Korea, Republic of",58.65.126.121,35.192800000000005,128.0847,KR,Seokyung Cable Television Co.. Ltd.,Seokyung Cable Television Co..LTD.
Lima,Peru,181.65.129.17,-12.050000000000011,-77.05,PE,Telefonica del Peru,Telefonica del Peru
,Mexico,207.248.60.9,19.430000000000007,-99.13,MX,"Television Internacional, S.A. de C.V.",Television Internacional S.A. de C.V.
Monterrey,Mexico,187.160.253.163,25.66669999999999,-100.3167,MX,"Television Internacional, S.A. de C.V.","Television Internacional, S.A. de C.V."
Jinju,"Korea, Republic of",124.153.252.17,35.192800000000005,128.0847,KR,Seokyung Cable Television Co.. Ltd.,Seokyung Cable Television Co..LTD.
,"Korea, Republic of",211.246.156.1,37.56999999999999,126.98000000000002,KR,Seokyung Cable Television Co.. Ltd.,Seokyung Cable Television Co..LTD.
,Germany,217.111.193.131,51.0,9.0,DE,COLT Technology Services Group Limited,COLT Technology Services Group Limited
Jinju,"Korea, Republic of",124.153.252.125,35.192800000000005,128.0847,KR,Seokyung Cable Television Co.. Ltd.,Seokyung Cable Television Co..LTD.
Monterrey,Mexico,189.218.88.1,25.66669999999999,-100.3167,MX,"Television Internacional, S.A. de C.V.","Television Internacional, S.A. de C.V."
Jinju,"Korea, Republic of",58.65.126.34,35.192800000000005,128.0847,KR,Seokyung Cable Television Co.. Ltd.,Seokyung Cable Television Co..LTD.
,"Korea, Republic of",211.246.212.1,37.56999999999999,126.98000000000002,KR,Seokyung Cable Television Co.. Ltd.,Seokyung Cable Television Co..LTD.
,"Korea, Republic of",211.246.253.169,37.56999999999999,126.98000000000002,KR,Seokyung Cable Television Co.. Ltd.,Seokyung Cable Television Co..LTD.
Monterrey,Mexico,201.172.15.17,25.66669999999999,-100.3167,MX,"Television Internacional, S.A. de C.V.","Television Internacional, S.A. de C.V."
,Mexico,207.248.43.89,19.430000000000007,-99.13,MX,"Television Internacional, S.A. de C.V.","Television Internacional, S.A. de C.V."
Jinju,"Korea, Republic of",58.65.125.13,35.192800000000005,128.0847,KR,Seokyung Cable Television Co.. Ltd.,Seokyung Cable Television Co..LTD.
San Jose,United States,50.76.41.166,37.33940000000001,-121.89500000000001,US,Comcast Business Communications,Comcast Business Communications
Monterrey,Mexico,187.161.168.1,25.66669999999999,-100.3167,MX,"Television Internacional, S.A. de C.V.","Television Internacional, S.A. de C.V."
Monterrey,Mexico,201.173.114.1,25.66669999999999,-100.3167,MX,"Television Internacional, S.A. de C.V.","Television Internacional, S.A. de C.V."
Jinju,"Korea, Republic of",58.65.126.78,35.192800000000005,128.0847,KR,Seokyung Cable Television Co.. Ltd.,Seokyung Cable Television Co..LTD.
,United States,70.91.146.208,38.0,-97.0,US,Comcast Business Communications,Comcast Business Communications
,Mexico,207.248.60.145,19.430000000000007,-99.13,MX,"Television Internacional, S.A. de C.V.",Television Internacional S.A. de C.V.
Jinju,"Korea, Republic of",124.153.236.1,35.192800000000005,128.0847,KR,Seokyung Cable Television Co.. Ltd.,Seokyung Cable Television Co..LTD.
Jinju,"Korea, Republic of",124.153.148.1,35.192800000000005,128.0847,KR,Seokyung Cable Television Co.. Ltd.,Seokyung Cable Television Co..LTD.
Monterrey,Mexico,201.173.0.1,25.66669999999999,-100.3167,MX,"Television Internacional, S.A. de C.V.","Television Internacional, S.A. de C.V."
Monterrey,Mexico,201.173.0.133,25.66669999999999,-100.3167,MX,"Television Internacional, S.A. de C.V.","Television Internacional, S.A. de C.V."
,Mexico,207.248.51.205,19.430000000000007,-99.13,MX,"Television Internacional, S.A. de C.V.","Television Internacional, S.A. de C.V."
Monterrey,Mexico,189.218.213.225,25.66669999999999,-100.3167,MX,"Television Internacional, S.A. de C.V.","Television Internacional, S.A. de C.V."
Hertford,United Kingdom,82.11.127.95,51.80000000000001,-0.06669999999999732,GB,Virgin Media,Virgin Media
,Mexico,207.248.39.121,19.430000000000007,-99.13,MX,"Television Internacional, S.A. de C.V.","Television Internacional, S.A. de C.V."
Monterrey,Mexico,187.160.190.1,25.66669999999999,-100.3167,MX,"Television Internacional, S.A. de C.V.","Television Internacional, S.A. de C.V."
,United States,70.88.14.18,38.0,-97.0,US,Comcast Business Communications,Comcast Business Communications
Monterrey,Mexico,201.173.227.1,25.66669999999999,-100.3167,MX,"Television Internacional, S.A. de C.V.","Television Internacional, S.A. de C.V."
Santiago,Chile,186.67.8.217,-33.44999999999999,-70.6667,CL,Entel Chile S.A.,Chile S.A.
,Mexico,201.151.157.209,25.66669999999999,-100.4,MX,"Alestra, S. de R.L. de C.V.","Alestra, S. de R.L. de C.V."
Monterrey,Mexico,201.173.0.149,25.66669999999999,-100.3167,MX,"Television Internacional, S.A. de C.V.","Television Internacional, S.A. de C.V."
Monterrey,Mexico,187.161.45.129,25.66669999999999,-100.3167,MX,"Television Internacional, S.A. de C.V.","Television Internacional, S.A. de C.V."
,"Korea, Republic of",211.246.199.1,37.56999999999999,126.98000000000002,KR,Seokyung Cable Television Co.. Ltd.,Seokyung Cable Television Co..LTD.
Monterrey,Mexico,189.218.216.1,25.66669999999999,-100.3167,MX,"Television Internacional, S.A. de C.V.","Television Internacional, S.A. de C.V."
East Lansing,United States,35.8.232.18,42.72829999999999,-84.4882,US,Merit Network,Michigan State University
,"Korea, Republic of",211.246.253.193,37.56999999999999,126.98000000000002,KR,Seokyung Cable Television Co.. Ltd.,Seokyung Cable Television Co..LTD.
Monterrey,Mexico,201.172.0.92,25.66669999999999,-100.3167,MX,"Television Internacional, S.A. de C.V.","Television Internacional, S.A. de C.V."
Monterrey,Mexico,189.218.220.1,25.66669999999999,-100.3167,MX,"Television Internacional, S.A. de C.V.","Television Internacional, S.A. de C.V."
Jinju,"Korea, Republic of",58.65.125.109,35.192800000000005,128.0847,KR,Seokyung Cable Television Co.. Ltd.,Seokyung Cable Television Co..LTD.
Apo,United States,202.174.159.243,,,US,Speedcast Limited,Speedcast Limited
,"Korea, Republic of",211.246.178.1,37.56999999999999,126.98000000000002,KR,Seokyung Cable Television Co.. Ltd.,Seokyung Cable Television Co..LTD.
,United States,38.96.244.73,38.0,-97.0,US,Cogent Communications,Multimedios Redes / Television Internacional SA de
Jinju,"Korea, Republic of",124.153.212.1,35.192800000000005,128.0847,KR,Seokyung Cable Television Co.. Ltd.,Seokyung Cable Television Co..LTD.
Monterrey,Mexico,201.173.109.97,25.66669999999999,-100.3167,MX,"Television Internacional, S.A. de C.V.","Television Internacional, S.A. de C.V."
Jinju,"Korea, Republic of",124.153.234.1,35.192800000000005,128.0847,KR,Seokyung Cable Television Co.. Ltd.,Seokyung Cable Television Co..LTD.
,"Korea, Republic of",211.246.175.81,37.56999999999999,126.98000000000002,KR,Seokyung Cable Television Co.. Ltd.,Seokyung Cable Television Co..LTD.
Washington,United States,38.104.29.186,38.89510000000001,-77.0364,US,Cogent Communications,Cogent Communications
,"Korea, Republic of",211.246.208.1,37.56999999999999,126.98000000000002,KR,Seokyung Cable Television Co.. Ltd.,Seokyung Cable Television Co..LTD.
,,189.219.144.1,,,,,
Tegucigalpa,Honduras,190.92.57.22,14.099999999999994,-87.2167,HN,Cablecolor S.A.,Cablecolor S.A.
,"Korea, Republic of",211.246.211.1,37.56999999999999,126.98000000000002,KR,Seokyung Cable Television Co.. Ltd.,Seokyung Cable Television Co..LTD.
Monterrey,Mexico,201.172.2.33,25.66669999999999,-100.3167,MX,"Television Internacional, S.A. de C.V.","Television Internacional, S.A. de C.V."
,Hong Kong,210.177.169.58,22.25,114.16669999999999,HK,PCCW IMSBiz,PCCW Business Internet Access
,"Korea, Republic of",61.76.76.199,37.56999999999999,126.98000000000002,KR,Korea Telecom,Korea Telecom
Monterrey,Mexico,187.160.176.1,25.66669999999999,-100.3167,MX,"Television Internacional, S.A. de C.V.","Television Internacional, S.A. de C.V."
,Romania,94.24.38.149,46.0,25.0,RO,Clax Telecom Srl,B1 Tv Channel Srl
Monterrey,Mexico,187.160.179.161,25.66669999999999,-100.3167,MX,"Television Internacional, S.A. de C.V.","Television Internacional, S.A. de C.V."
,"Korea, Republic of",211.246.160.1,37.56999999999999,126.98000000000002,KR,Seokyung Cable Television Co.. Ltd.,Seokyung Cable Television Co..LTD.
Monterrey,Mexico,201.173.0.5,25.66669999999999,-100.3167,MX,"Television Internacional, S.A. de C.V.","Television Internacional, S.A. de C.V."
,United States,47.22.11.54,38.0,-97.0,US,Optimum Online,Optimum Online
,"Korea, Republic of",211.246.251.89,37.56999999999999,126.98000000000002,KR,Seokyung Cable Television Co.. Ltd.,Seokyung Cable Television Co..LTD.
Jinju,"Korea, Republic of",58.65.126.66,35.192800000000005,128.0847,KR,Seokyung Cable Television Co.. Ltd.,Seokyung Cable Television Co..LTD.
,Mexico,207.248.54.65,19.430000000000007,-99.13,MX,"Television Internacional, S.A. de C.V.","Television Internacional, S.A. de C.V."
Jinju,"Korea, Republic of",58.65.126.106,35.192800000000005,128.0847,KR,Seokyung Cable Television Co.. Ltd.,Seokyung Cable Television Co..LTD.
,United Kingdom,81.19.187.227,51.5,-0.12999999999999545,GB,UKDedicated LTD,UKDedicated LTD
,"Korea, Republic of",211.246.155.1,37.56999999999999,126.98000000000002,KR,Seokyung Cable Television Co.. Ltd.,Seokyung Cable Television Co..LTD.
Jinju,"Korea, Republic of",124.153.228.1,35.192800000000005,128.0847,KR,Seokyung Cable Television Co.. Ltd.,Seokyung Cable Television Co..LTD.
,"Korea, Republic of",211.246.209.1,37.56999999999999,126.98000000000002,KR,Seokyung Cable Television Co.. Ltd.,Seokyung Cable Television Co..LTD.
Jinju,"Korea, Republic of",124.153.203.1,35.192800000000005,128.0847,KR,Seokyung Cable Television Co.. Ltd.,Seokyung Cable Television Co..LTD.
,Mexico,207.248.43.185,19.430000000000007,-99.13,MX,"Television Internacional, S.A. de C.V.","Television Internacional, S.A. de C.V."
Jinju,"Korea, Republic of",124.153.182.1,35.192800000000005,128.0847,KR,Seokyung Cable Television Co.. Ltd.,Seokyung Cable Television Co..LTD.
Orange,United States,107.6.248.34,33.813799999999986,-117.7986,US,Krypt Technologies,fleurette_beaudouin
,"Korea, Republic of",211.246.253.97,37.56999999999999,126.98000000000002,KR,Seokyung Cable Television Co.. Ltd.,Seokyung Cable Television Co..LTD.
Alamo,United States,24.153.196.74,26.145100000000014,-98.1197,US,Time Warner Cable,Time Warner Cable
Washington,United States,38.105.92.66,38.906800000000004,-77.0427,US,Cogent Communications,Radio Television News Directors Association - RTND
,"Korea, Republic of",211.246.243.1,37.56999999999999,126.98000000000002,KR,Seokyung Cable Television Co.. Ltd.,Seokyung Cable Television Co..LTD.
,"Korea, Republic of",211.246.193.1,37.56999999999999,126.98000000000002,KR,Seokyung Cable Television Co.. Ltd.,Seokyung Cable Television Co..LTD.
,"Korea, Republic of",211.246.161.1,37.56999999999999,126.98000000000002,KR,Seokyung Cable Television Co.. Ltd.,Seokyung Cable Television Co..LTD.
Jinju,"Korea, Republic of",58.65.126.22,35.192800000000005,128.0847,KR,Seokyung Cable Television Co.. Ltd.,Seokyung Cable Television Co..LTD.
,Mexico,207.248.43.177,19.430000000000007,-99.13,MX,"Television Internacional, S.A. de C.V.","Television Internacional, S.A. de C.V."
,Mexico,207.248.60.81,19.430000000000007,-99.13,MX,"Television Internacional, S.A. de C.V.",Television Internacional S.A. de C.V.
Balchik,Bulgaria,46.252.49.83,43.41669999999999,28.16669999999999,BG,Lafy EOOD,Balchik.net
Monterrey,Mexico,201.172.0.191,25.66669999999999,-100.3167,MX,"Television Internacional, S.A. de C.V.","Television Internacional, S.A. de C.V."
Jinju,"Korea, Republic of",58.65.118.49,35.192800000000005,128.0847,KR,Seokyung Cable Television Co.. Ltd.,Seokyung Cable Television Co..LTD.
Jinju,"Korea, Republic of",58.65.126.130,35.192800000000005,128.0847,KR,Seokyung Cable Television Co.. Ltd.,Seokyung Cable Television Co..LTD.
Monterrey,Mexico,187.161.248.129,25.66669999999999,-100.3167,MX,"Television Internacional, S.A. de C.V.","Television Internacional, S.A. de C.V."
,"Korea, Republic of",211.246.253.149,37.56999999999999,126.98000000000002,KR,Seokyung Cable Television Co.. Ltd.,Seokyung Cable Television Co..LTD.
,Mexico,207.248.60.49,19.430000000000007,-99.13,MX,"Television Internacional, S.A. de C.V.",Television Internacional S.A. de C.V.
Monterrey,Mexico,189.218.214.1,25.66669999999999,-100.3167,MX,"Television Internacional, S.A. de C.V.","Television Internacional, S.A. de C.V."
,Bangladesh,202.161.185.100,24.0,90.0,BD,"Alap Communication Ltd. ,Data/Internet Service","Alap Communication Ltd. ,Data/Internet Service"
Jinju,"Korea, Republic of",124.153.252.237,35.192800000000005,128.0847,KR,Seokyung Cable Television Co.. Ltd.,Seokyung Cable Television Co..LTD.
Santiago,Chile,186.67.104.185,-33.44999999999999,-70.6667,CL,Entel Chile S.A.,Chile S.A.
,Mexico,207.248.34.177,19.430000000000007,-99.13,MX,"Television Internacional, S.A. de C.V.","Television Internacional, S.A. de C.V."
,"Korea, Republic of",211.246.213.1,37.56999999999999,126.98000000000002,KR,Seokyung Cable Television Co.. Ltd.,Seokyung Cable Television Co..LTD.
Monterrey,Mexico,201.172.179.1,25.66669999999999,-100.3167,MX,"Television Internacional, S.A. de C.V.","Television Internacional, S.A. de C.V."
Monterrey,Mexico,187.161.198.1,25.66669999999999,-100.3167,MX,"Television Internacional, S.A. de C.V.","Television Internacional, S.A. de C.V."
Cluj-napoca,Romania,188.27.149.165,46.766699999999986,23.599999999999994,RO,RCS & RDS,RCS & RDS Business
,United States,38.96.244.77,38.0,-97.0,US,Cogent Communications,Multimedios Redes / Television Internacional SA de
Calgary,Canada,184.64.38.25,51.08330000000001,-114.0833,CA,Shaw Communications,Shaw Communications
,"Korea, Republic of",211.246.233.1,37.56999999999999,126.98000000000002,KR,Seokyung Cable Television Co.. Ltd.,Seokyung Cable Television Co..LTD.
Millersville,United States,24.35.6.25,39.084,-76.6157,US,Broadstripe,Broadstripe
,Italy,2.228.20.57,42.83330000000001,12.833300000000008,IT,Fastweb,Fastweb
Monterrey,Mexico,201.173.0.189,25.66669999999999,-100.3167,MX,"Television Internacional, S.A. de C.V.","Television Internacional, S.A. de C.V."
Newport,United Kingdom,2.98.200.145,50.69999999999999,-1.3000000000000114,GB,TalkTalk,TalkTalk
Fairfield,United States,69.18.30.218,41.025000000000006,-91.9307,US,Local Internet Service Company,Local Internet Service Company
,,189.219.176.1,,,,,
,"Korea, Republic of",211.246.152.1,37.56999999999999,126.98000000000002,KR,Seokyung Cable Television Co.. Ltd.,Seokyung Cable Television Co..LTD.
Monterrey,Mexico,201.172.48.1,25.66669999999999,-100.3167,MX,"Television Internacional, S.A. de C.V.","Television Internacional, S.A. de C.V."
,"Korea, Republic of",211.246.214.1,37.56999999999999,126.98000000000002,KR,Seokyung Cable Television Co.. Ltd.,Seokyung Cable Television Co..LTD.
,"Korea, Republic of",211.246.194.1,37.56999999999999,126.98000000000002,KR,Seokyung Cable Television Co.. Ltd.,Seokyung Cable Television Co..LTD.
Algorta,Spain,85.85.199.147,43.3493,-3.009999999999991,ES,Euskaltel S.A.,Euskaltel S.A.
Seattle,United States,128.95.90.95,47.66059999999999,-122.2919,US,University of Washington,University of Washington
Monterrey,Mexico,201.172.144.1,25.66669999999999,-100.3167,MX,"Television Internacional, S.A. de C.V.","Television Internacional, S.A. de C.V."
,Nepal,202.166.199.67,28.0,84.0,NP,SingNet Pte Ltd,SingNet Pte Ltd
Casablanca,Morocco,196.217.162.186,33.59280000000001,-7.619200000000006,MA,Maroc Telecom,Maroc Telecom
Kingston,United States,131.128.94.193,41.477300000000014,-71.5208,US,University of Rhode Island,University of Rhode Island
Monterrey,Mexico,187.161.192.1,25.66669999999999,-100.3167,MX,"Television Internacional, S.A. de C.V.","Television Internacional, S.A. de C.V."
Jinju,"Korea, Republic of",58.65.71.17,35.192800000000005,128.0847,KR,Seokyung Cable Television Co.. Ltd.,Seokyung Cable Television Co..LTD.
Jinju,"Korea, Republic of",58.65.126.134,35.192800000000005,128.0847,KR,Seokyung Cable Television Co.. Ltd.,Seokyung Cable Television Co..LTD.
Monterrey,Mexico,187.160.193.1,25.66669999999999,-100.3167,MX,"Television Internacional, S.A. de C.V.","Television Internacional, S.A. de C.V."
,,189.219.64.1,,,,,
Millersville,United States,24.35.6.26,39.084,-76.6157,US,Broadstripe,Broadstripe
Millersville,United States,24.35.6.23,39.084,-76.6157,US,Broadstripe,Broadstripe
,France,193.248.32.183,48.860000000000014,2.3499999999999943,FR,Orange,Orange
Kingston,United States,131.128.93.22,41.477300000000014,-71.5208,US,University of Rhode Island,University of Rhode Island
Monterrey,Mexico,187.161.120.1,25.66669999999999,-100.3167,MX,"Television Internacional, S.A. de C.V.","Television Internacional, S.A. de C.V."
,"Korea, Republic of",211.246.253.93,37.56999999999999,126.98000000000002,KR,Seokyung Cable Television Co.. Ltd.,Seokyung Cable Television Co..LTD.
,Mexico,207.248.43.81,19.430000000000007,-99.13,MX,"Television Internacional, S.A. de C.V.","Television Internacional, S.A. de C.V."
University Park,United States,128.118.86.152,40.80770000000001,-77.8614,US,The Pennsylvania State University,The Pennsylvania State University
,Mexico,201.151.157.225,25.66669999999999,-100.4,MX,"Alestra, S. de R.L. de C.V.","Alestra, S. de R.L. de C.V."
Jinju,"Korea, Republic of",124.153.183.1,35.192800000000005,128.0847,KR,Seokyung Cable Television Co.. Ltd.,Seokyung Cable Television Co..LTD.
,France,193.248.32.14,48.860000000000014,2.3499999999999943,FR,Orange,Orange
Millersville,United States,24.35.6.21,39.084,-76.6157,US,Broadstripe,Broadstripe
Monterrey,Mexico,201.172.220.1,25.66669999999999,-100.3167,MX,"Television Internacional, S.A. de C.V.","Television Internacional, S.A. de C.V."
,Mexico,207.248.51.129,19.430000000000007,-99.13,MX,"Television Internacional, S.A. de C.V.","Television Internacional, S.A. de C.V."
Kingston,United States,131.128.93.27,41.477300000000014,-71.5208,US,University of Rhode Island,University of Rhode Island
,Nepal,202.166.197.178,28.0,84.0,NP,SingNet Pte Ltd,SingNet Pte Ltd
Windsor,United States,72.19.179.212,40.47239999999999,-104.8939,US,JAB Wireless,JAB Wireless
New York,United States,71.249.209.21,40.74209999999999,-74.0018,US,Verizon Internet Services,Verizon Internet Services
Oakland,United States,12.227.207.50,37.80439999999999,-122.27080000000001,US,AT&T Services,AT&T Services
Monterrey,Mexico,189.218.230.1,25.66669999999999,-100.3167,MX,"Television Internacional, S.A. de C.V.","Television Internacional, S.A. de C.V."
,Italy,31.6.13.239,42.83330000000001,12.833300000000008,IT,YHC International BV,Powerhouse Management
,"Korea, Republic of",211.246.250.1,37.56999999999999,126.98000000000002,KR,Seokyung Cable Television Co.. Ltd.,Seokyung Cable Television Co..LTD.
Highland Falls,United States,4.31.18.220,41.354600000000005,-74.0017,US,Level 3 Communications,Level 3 Communications
Jinju,"Korea, Republic of",124.153.252.149,35.192800000000005,128.0847,KR,Seokyung Cable Television Co.. Ltd.,Seokyung Cable Television Co..LTD.
Monterrey,Mexico,201.173.225.1,25.66669999999999,-100.3167,MX,"Television Internacional, S.A. de C.V.","Television Internacional, S.A. de C.V."
Palo Alto,United States,38.98.7.60,37.37620000000001,-122.18260000000001,US,Cogent Communications,Venture Technologies
,"Korea, Republic of",211.246.200.1,37.56999999999999,126.98000000000002,KR,Seokyung Cable Television Co.. Ltd.,Seokyung Cable Television Co..LTD.
Monterrey,Mexico,201.173.165.129,25.66669999999999,-100.3167,MX,"Television Internacional, S.A. de C.V.","Television Internacional, S.A. de C.V."
Broken Arrow,United States,68.109.249.70,36.05260000000001,-95.7908,US,Cox Communications,Cox Communications
Jinju,"Korea, Republic of",124.153.207.1,35.192800000000005,128.0847,KR,Seokyung Cable Television Co.. Ltd.,Seokyung Cable Television Co..LTD.
Jinju,"Korea, Republic of",124.153.230.1,35.192800000000005,128.0847,KR,Seokyung Cable Television Co.. Ltd.,Seokyung Cable Television Co..LTD.
Monterrey,Mexico,201.173.0.161,25.66669999999999,-100.3167,MX,"Television Internacional, S.A. de C.V.","Television Internacional, S.A. de C.V."
,Italy,2.228.20.56,42.83330000000001,12.833300000000008,IT,Fastweb,Fastweb
Kingston,United States,131.128.93.25,41.477300000000014,-71.5208,US,University of Rhode Island,University of Rhode Island
,United States,216.206.241.180,38.0,-97.0,US,CenturyLink,CenturyLink
,Morocco,41.250.215.79,32.0,-5.0,MA,Maroc Telecom,Maroc Telecom
Millersville,United States,24.35.6.20,39.084,-76.6157,US,Broadstripe,Broadstripe
,Pakistan,202.5.140.75,30.0,70.0,PK,Magsnet Limited,Ebone Network (PVT.) Limited
Monterrey,Mexico,201.173.0.173,25.66669999999999,-100.3167,MX,"Television Internacional, S.A. de C.V.","Television Internacional, S.A. de C.V."
,"Korea, Republic of",211.246.253.141,37.56999999999999,126.98000000000002,KR,Seokyung Cable Television Co.. Ltd.,Seokyung Cable Television Co..LTD.
Jinju,"Korea, Republic of",124.153.252.53,35.192800000000005,128.0847,KR,Seokyung Cable Television Co.. Ltd.,Seokyung Cable Television Co..LTD.
Monterrey,Mexico,201.172.228.1,25.66669999999999,-100.3167,MX,"Television Internacional, S.A. de C.V.","Television Internacional, S.A. de C.V."
La Paz,Bolivia,190.129.88.19,-16.5,-68.15,BO,Entel S.A. - EntelNet,Entel S.A. - EntelNet
Monterrey,Mexico,187.161.41.105,25.66669999999999,-100.3167,MX,"Television Internacional, S.A. de C.V.","Television Internacional, S.A. de C.V."
Stockholm,Sweden,176.10.225.130,59.33330000000001,18.05000000000001,SE,Bahnhof Internet AB,Bahnhof Internet AB
Monterrey,Mexico,187.161.218.193,25.66669999999999,-100.3167,MX,"Television Internacional, S.A. de C.V.","Television Internacional, S.A. de C.V."
Brugg,Switzerland,213.142.160.117,47.48150000000001,8.203000000000003,CH,Evard Antennenbau AG,Evard Antennenbau AG
Monterrey,Mexico,187.161.252.129,25.66669999999999,-100.3167,MX,"Television Internacional, S.A. de C.V.","Television Internacional, S.A. de C.V."
Monterrey,Mexico,187.161.181.1,25.66669999999999,-100.3167,MX,"Television Internacional, S.A. de C.V.","Television Internacional, S.A. de C.V."
,"Korea, Republic of",211.246.177.1,37.56999999999999,126.98000000000002,KR,Seokyung Cable Television Co.. Ltd.,Seokyung Cable Television Co..LTD.
,"Korea, Republic of",211.246.253.177,37.56999999999999,126.98000000000002,KR,Seokyung Cable Television Co.. Ltd.,Seokyung Cable Television Co..LTD.
,"Korea, Republic of",211.246.192.1,37.56999999999999,126.98000000000002,KR,Seokyung Cable Television Co.. Ltd.,Seokyung Cable Television Co..LTD.
Youssoufia,Morocco,41.250.170.36,32.24629999999999,-8.52940000000001,MA,Maroc Telecom,Maroc Telecom
,,189.219.136.1,,,,,
Monterrey,Mexico,201.173.56.1,25.66669999999999,-100.3167,MX,"Television Internacional, S.A. de C.V.","Television Internacional, S.A. de C.V."
Asahi,Japan,124.155.112.196,35.7167,140.64999999999998,JP,"ASAHI Net,Inc.",Asahi Net
Jinju,"Korea, Republic of",58.65.126.70,35.192800000000005,128.0847,KR,Seokyung Cable Television Co.. Ltd.,Seokyung Cable Television Co..LTD.
Monterrey,Mexico,201.162.48.1,25.66669999999999,-100.3167,MX,"Cablevision de Saltillo, S.A. de C.V.","Television Internacional, S.A. de C.V."
Monterrey,Mexico,201.173.0.37,25.66669999999999,-100.3167,MX,"Television Internacional, S.A. de C.V.","Television Internacional, S.A. de C.V."
,"Korea, Republic of",211.246.240.13,37.56999999999999,126.98000000000002,KR,Seokyung Cable Television Co.. Ltd.,Seokyung Cable Television Co..LTD.
Murcia,Spain,84.124.80.136,37.986999999999995,-1.1299999999999955,ES,ONO,ONO
Monterrey,Mexico,201.173.134.1,25.66669999999999,-100.3167,MX,"Television Internacional, S.A. de C.V.","Television Internacional, S.A. de C.V."
Monterrey,Mexico,201.172.198.1,25.66669999999999,-100.3167,MX,"Television Internacional, S.A. de C.V.","Television Internacional, S.A. de C.V."
Monterrey,Mexico,187.160.164.1,25.66669999999999,-100.3167,MX,"Television Internacional, S.A. de C.V.","Television Internacional, S.A. de C.V."
,Norway,84.234.205.3,62.0,10.0,NO,Altibox AS,Altibox AS
,Norway,84.234.205.8,62.0,10.0,NO,Altibox AS,Altibox AS
Jinju,"Korea, Republic of",58.65.71.9,35.192800000000005,128.0847,KR,Seokyung Cable Television Co.. Ltd.,Seokyung Cable Television Co..LTD.
,"Korea, Republic of",211.246.157.1,37.56999999999999,126.98000000000002,KR,Seokyung Cable Television Co.. Ltd.,Seokyung Cable Television Co..LTD.
Monterrey,Mexico,201.173.132.1,25.66669999999999,-100.3167,MX,"Television Internacional, S.A. de C.V.","Television Internacional, S.A. de C.V."
Millersville,United States,24.35.6.31,39.084,-76.6157,US,Broadstripe,Broadstripe
,Morocco,41.248.179.54,34.03890000000001,-6.816599999999994,MA,Maroc Telecom,Maroc Telecom
,Italy,2.228.20.125,42.83330000000001,12.833300000000008,IT,Fastweb,Fastweb
,Satellite Provider,216.139.170.165,,,A2,PanAmSat Corporation,PanAmSat Corporation
,"Korea, Republic of",211.246.251.121,37.56999999999999,126.98000000000002,KR,Seokyung Cable Television Co.. Ltd.,Seokyung Cable Television Co..LTD.
Jinju,"Korea, Republic of",124.153.181.1,35.192800000000005,128.0847,KR,Seokyung Cable Television Co.. Ltd.,Seokyung Cable Television Co..LTD.
Monterrey,Mexico,187.160.186.1,25.66669999999999,-100.3167,MX,"Television Internacional, S.A. de C.V.","Television Internacional, S.A. de C.V."
Monterrey,Mexico,201.173.203.21,25.66669999999999,-100.3167,MX,"Television Internacional, S.A. de C.V.","Television Internacional, S.A. de C.V."
,United States,162.215.65.92,38.0,-97.0,US,Unified Layer,Unified Layer
Monterrey,Mexico,201.172.109.177,25.66669999999999,-100.3167,MX,"Television Internacional, S.A. de C.V.","Television Internacional, S.A. de C.V."
,"Korea, Republic of",211.246.135.1,37.56999999999999,126.98000000000002,KR,Seokyung Cable Television Co.. Ltd.,Seokyung Cable Television Co..LTD.
Ballarat,Australia,203.208.65.102,-37.5677,143.8786,AU,TransACT Capital Communications Pty Limited,Neighbourhood Cable
Jinju,"Korea, Republic of",124.153.199.1,35.192800000000005,128.0847,KR,Seokyung Cable Television Co.. Ltd.,Seokyung Cable Television Co..LTD.
,"Korea, Republic of",211.246.198.1,37.56999999999999,126.98000000000002,KR,Seokyung Cable Television Co.. Ltd.,Seokyung Cable Television Co..LTD.
Alamo,United States,24.153.196.38,26.145100000000014,-98.1197,US,Time Warner Cable,Time Warner Cable
Monterrey,Mexico,187.160.62.1,25.66669999999999,-100.3167,MX,"Television Internacional, S.A. de C.V.","Television Internacional, S.A. de C.V."
Monterrey,Mexico,187.161.61.1,25.66669999999999,-100.3167,MX,"Television Internacional, S.A. de C.V.","Television Internacional, S.A. de C.V."
Bondi,Australia,59.167.167.145,-33.891699999999986,151.26670000000001,AU,Internode,Internode
,United Kingdom,81.174.226.76,51.5,-0.12999999999999545,GB,PlusNet Technologies Ltd,PlusNet Technologies Ltd
Monterrey,Mexico,187.160.144.1,25.66669999999999,-100.3167,MX,"Television Internacional, S.A. de C.V.","Television Internacional, S.A. de C.V."
,Norway,84.234.205.7,62.0,10.0,NO,Altibox AS,Altibox AS
Lima,Peru,181.65.227.201,-12.050000000000011,-77.05,PE,Telefonica del Peru,Telefonica del Peru
Millersville,United States,24.35.6.24,39.084,-76.6157,US,Broadstripe,Broadstripe
,"Korea, Republic of",211.246.202.1,37.56999999999999,126.98000000000002,KR,Seokyung Cable Television Co.. Ltd.,Seokyung Cable Television Co..LTD.
Monterrey,Mexico,201.173.255.1,25.66669999999999,-100.3167,MX,"Television Internacional, S.A. de C.V.","Television Internacional, S.A. de C.V."
,"Korea, Republic of",211.246.165.1,37.56999999999999,126.98000000000002,KR,Seokyung Cable Television Co.. Ltd.,Seokyung Cable Television Co..LTD.
Monterrey,Mexico,187.161.220.161,25.66669999999999,-100.3167,MX,"Television Internacional, S.A. de C.V.","Television Internacional, S.A. de C.V."
Jinju,"Korea, Republic of",124.153.252.185,35.192800000000005,128.0847,KR,Seokyung Cable Television Co.. Ltd.,Seokyung Cable Television Co..LTD.
Jinju,"Korea, Republic of",124.153.229.1,35.192800000000005,128.0847,KR,Seokyung Cable Television Co.. Ltd.,Seokyung Cable Television Co..LTD.
,Norway,84.234.205.6,62.0,10.0,NO,Altibox AS,Altibox AS
,Norway,84.234.205.2,62.0,10.0,NO,Altibox AS,Altibox AS
,Satellite Provider,216.10.48.132,,,A2,"LBiSat, LLC","LBiSat, LLC"
Monterrey,Mexico,201.173.112.1,25.66669999999999,-100.3167,MX,"Television Internacional, S.A. de C.V.","Television Internacional, S.A. de C.V."
Millersville,United States,24.35.6.27,39.084,-76.6157,US,Broadstripe,Broadstripe
,Norway,84.234.205.3,62.0,10.0,NO,Altibox AS,Altibox AS
Jinju,"Korea, Republic of",124.153.132.1,35.192800000000005,128.0847,KR,Seokyung Cable Television Co.. Ltd.,Seokyung Cable Television Co..LTD.
,"Korea, Republic of",61.76.76.217,37.56999999999999,126.98000000000002,KR,Korea Telecom,Korea Telecom
,Netherlands,84.53.100.214,52.5,5.75,NL,Unet B.V.,Unet B.V.
Saltillo,Mexico,201.158.64.70,25.41669999999999,-101.0,MX,"Cablevision de Saltillo, S.A. de C.V.","Cablevision de Saltillo, S.A. de C.V."
Monterrey,Mexico,187.161.220.25,25.66669999999999,-100.3167,MX,"Television Internacional, S.A. de C.V.","Television Internacional, S.A. de C.V."
,Satellite Provider,216.10.48.133,,,A2,"LBiSat, LLC","LBiSat, LLC"
,Portugal,195.23.141.222,39.5,-8.0,PT,"NOVIS Telecom, S.A.","NOVIS Telecom, S.A."
,Norway,84.234.205.6,62.0,10.0,NO,Altibox AS,Altibox AS
,"Korea, Republic of",211.246.210.1,37.56999999999999,126.98000000000002,KR,Seokyung Cable Television Co.. Ltd.,Seokyung Cable Television Co..LTD.
,"Korea, Republic of",211.246.251.113,37.56999999999999,126.98000000000002,KR,Seokyung Cable Television Co.. Ltd.,Seokyung Cable Television Co..LTD.
,Iceland,213.176.132.252,65.0,-18.0,IS,Fjarskipti ehf,Fjarskipti ehf
,Italy,2.228.20.126,42.83330000000001,12.833300000000008,IT,Fastweb,Fastweb
Monterrey,Mexico,189.218.212.49,25.66669999999999,-100.3167,MX,"Television Internacional, S.A. de C.V.","Television Internacional, S.A. de C.V."
Altamira,Mexico,187.161.179.1,22.400000000000006,-97.9167,MX,"Television Internacional, S.A. de C.V.","Television Internacional, S.A. de C.V."
Sandnes,Norway,84.234.205.2,58.849999999999994,5.733300000000014,NO,Altibox AS,Altibox AS
Jinju,"Korea, Republic of",124.153.149.1,35.192800000000005,128.0847,KR,Seokyung Cable Television Co.. Ltd.,Seokyung Cable Television Co..LTD.
Santiago,Chile,200.27.121.166,-33.44999999999999,-70.6667,CL,Telmex Chile Internet S.A.,Telmex Chile Internet S.A.
Sandnes,Norway,84.234.205.9,58.849999999999994,5.733300000000014,NO,Altibox AS,Altibox AS
Monterrey,Mexico,187.160.253.1,25.66669999999999,-100.3167,MX,"Television Internacional, S.A. de C.V.","Television Internacional, S.A. de C.V."
Monterrey,Mexico,189.218.212.185,25.66669999999999,-100.3167,MX,"Television Internacional, S.A. de C.V.","Television Internacional, S.A. de C.V."
Park City,United States,216.117.226.4,40.7174,-111.5534,US,All West Communications,All West Communications
Monterrey,Mexico,201.172.0.25,25.66669999999999,-100.3167,MX,"Television Internacional, S.A. de C.V.","Television Internacional, S.A. de C.V."
Tooele,United States,204.13.131.77,40.57570000000001,-112.3346,US,Beehive Telephone Company,Beehive Telephone Company
Kuala Lumpur,Malaysia,202.176.12.42,3.1666999999999916,101.69999999999999,MY,"Measat Transit, Measat Teleport and Broadcast Cent","Measat Transit, Measat Teleport and Broadcast Cent"
Apodaca,Mexico,187.160.116.1,25.766699999999986,-100.2,MX,"Television Internacional, S.A. de C.V.","Television Internacional, S.A. de C.V."
Monterrey,Mexico,201.172.212.1,25.66669999999999,-100.3167,MX,"Television Internacional, S.A. de C.V.","Television Internacional, S.A. de C.V."
Rabat,Morocco,41.140.158.233,34.0138,-6.844300000000004,MA,Maroc Telecom,Maroc Telecom
Sandnes,Norway,84.234.205.8,58.849999999999994,5.733300000000014,NO,Altibox AS,Altibox AS
,Netherlands,138.199.65.172,52.5,5.75,NL,SuperNews,SuperNews
,Spain,85.88.142.43,40.0,-4.0,ES,COLT Technology Services Group Limited,Colt Telecom
Santiago,Chile,200.90.188.73,-33.44999999999999,-70.6667,CL,Telefonica Empresas,Telefonica Empresas
Guadalupe,Mexico,201.173.190.1,25.683300000000003,-100.25,MX,"Television Internacional, S.A. de C.V.","Television Internacional, S.A. de C.V."
Sucat,Philippines,119.92.174.126,14.463099999999997,121.05470000000003,PH,Philippine Long Distance Telephone,Philippine Long Distance Telephone
Chinju,"Korea, Republic of",58.65.125.154,35.192800000000005,128.0847,KR,Seokyung Cable Television Co.. Ltd.,Seokyung Cable Television Co..LTD.
Gdynia,Poland,193.109.58.71,54.5,18.55000000000001,PL,VECTOR sp. z o.o.,VECTOR sp. z o.o.
,"Korea, Republic of",211.246.197.1,37.0,127.5,KR,Seokyung Cable Television Co.. Ltd.,Seokyung Cable Television Co..LTD.
Saint-lger-sur-sarthe,France,78.202.116.69,48.50380000000001,0.34030000000001337,FR,Free SAS,Free SAS
,Russian Federation,80.87.156.166,60.0,100.0,RU,Non-commercial partnership United Telecommunicatio,Media S.A.
,United States,66.205.60.101,38.0,-97.0,US,Intelsat GlobalConnex Solutions (GXS),Intelsat Global BGP Routing Policy
Altamira,Mexico,187.161.78.1,24.78110000000001,-99.375,MX,"Television Internacional, S.A. de C.V.","Television Internacional, S.A. de C.V."
Sandnes,Norway,84.234.205.7,58.849999999999994,5.733300000000014,NO,Altibox AS,Altibox AS
Monterrey,Mexico,201.173.150.1,25.66669999999999,-100.3167,MX,"Television Internacional, S.A. de C.V.","Television Internacional, S.A. de C.V."
Rabat,Morocco,41.140.35.50,34.0138,-6.844300000000004,MA,Maroc Telecom,Maroc Telecom
East Hartford,United States,64.251.60.233,41.77760000000001,-72.6214,US,State of Connecticut,State of Connecticut
,Switzerland,193.73.184.18,47.0,8.0,CH,green.ch AG,Bluewin
,"Korea, Republic of",211.246.153.1,37.0,127.5,KR,Seokyung Cable Television Co.. Ltd.,Seokyung Cable Television Co..LTD.
,Russian Federation,95.140.93.166,60.0,100.0,RU,Jsc Globalnet,Jsc Globalnet
,Russian Federation,95.140.93.170,60.0,100.0,RU,Jsc Globalnet,Jsc Globalnet
,United States,65.121.35.199,38.0,-97.0,US,CenturyLink,Dial Global
,Russian Federation,95.140.93.162,60.0,100.0,RU,Jsc Globalnet,Jsc Globalnet
,Russian Federation,95.140.93.186,60.0,100.0,RU,Jsc Globalnet,Jsc Globalnet
Monterrey,Mexico,187.161.220.18,25.66669999999999,-100.3167,MX,"Television Internacional, S.A. de C.V.","Television Internacional, S.A. de C.V."
,Netherlands,90.145.33.67,52.5,5.75,NL,Unet B.V.,Unet B.V.
Las Vegas,United States,24.120.195.123,36.17500000000001,-115.1372,US,Cox Communications,"iStreamPlanet, Co"
,France,193.248.32.86,46.0,2.0,FR,France Telecom,France Telecom
Morelia,Mexico,200.77.144.194,19.69999999999999,-101.1167,MX,"Tele Cable Centro Occidente, S.A. de C.V.","Tele Cable Centro Occidente, S.A. de C.V."
,Russian Federation,95.140.93.174,60.0,100.0,RU,Jsc Globalnet,Jsc Globalnet
,Russian Federation,95.140.93.178,60.0,100.0,RU,Jsc Globalnet,Jsc Globalnet
Quarto Inferiore,Italy,2.228.20.44,44.5333,11.416699999999992,IT,Fastweb,Fastweb
Odenton,United States,24.35.6.30,39.05099999999999,-76.7285,US,Broadstripe,Broadstripe
,Germany,80.92.48.172,51.0,9.0,DE,Stellar PCS GmbH,"Stellar PCS GmbH, Infrastructure"
Sandnes,Norway,84.234.205.9,58.849999999999994,5.733300000000014,NO,Altibox AS,Lyse Tele
Istanbul,Turkey,46.245.162.224,41.01859999999999,28.964699999999993,TR,Netcen Teknoloji Ltd. Sti,NETCEN Teknoloji Ltd. Sti.
,Portugal,85.88.142.46,39.5,-8.0,PT,COLT Technology Services Group Limited,Colt telecom
Ilsan,"Korea, Republic of",221.142.87.227,38.1833,127.81670000000003,KR,SK Broadband Co Ltd,SK Broadband Co Ltd
Dakar,Senegal,213.154.93.3,14.670800000000014,-17.43809999999999,SN,Societe Nationale Des Telecommunications Du Senega,Societe Nationale Des Telecommunications Du Senega
Birmingham,United States,67.78.232.100,33.520700000000005,-86.8025,US,Road Runner,Road Runner
,Russian Federation,95.140.93.182,60.0,100.0,RU,Jsc Globalnet,Jsc Globalnet
Houston,United States,165.95.101.38,29.763299999999987,-95.3633,US,Texas A&M University,Texas A&M University
Garza Garca,Mexico,201.151.181.126,25.66669999999999,-100.4,MX,"Alestra, S. de R.L. de C.V.","Alestra, S. de R.L. de C.V."
,United States,173.60.17.100,38.0,-97.0,US,Verizon Internet Services,Verizon Internet Services
Birmingham,United States,67.78.232.101,33.520700000000005,-86.8025,US,Road Runner,Road Runner
Chinju,"Korea, Republic of",58.65.126.93,35.192800000000005,128.0847,KR,Seokyung Cable Television Co.. Ltd.,Seokyung Cable Television Co..LTD.
Birmingham,United States,67.78.232.82,33.520700000000005,-86.8025,US,Road Runner,Road Runner
Sevilla,Spain,217.125.64.141,37.38239999999999,-5.976100000000002,ES,Telefonica de Espana,Telefonica de Espana
Arenys De Munt,Spain,80.39.39.106,41.61420000000001,2.5397000000000105,ES,Telefonica de Espana,Telefonica de Espana
Odenton,United States,24.35.6.22,39.05099999999999,-76.7285,US,Broadstripe,Broadstripe
Birmingham,United States,67.78.232.72,33.520700000000005,-86.8025,US,Road Runner,Road Runner
Odenton,United States,24.35.6.28,39.05099999999999,-76.7285,US,Broadstripe,Broadstripe
,Macedonia,89.205.123.116,41.83330000000001,22.0,MK,MEGANET,MEGANET
,Russian Federation,80.87.156.167,60.0,100.0,RU,Non-commercial partnership United Telecommunicatio,Media
Madison,United States,64.73.13.81,43.02080000000001,-89.36,US,CDW Technologies,Wisc_tv/hms
Seoul,"Korea, Republic of",116.127.140.126,37.5985,126.97829999999999,KR,Hanaro Telecom,Hanaro Telecom
Jinju,"Korea, Republic of",58.65.126.53,35.192800000000005,128.0847,KR,Seokyung Cable Television Co.. Ltd.,Seokyung Cable Television Co..LTD.
Sabadell,Spain,2.138.141.56,41.54329999999999,2.1093999999999937,ES,Telefonica de Espana,Telefonica de Espana
Birmingham,United States,67.78.232.101,33.520700000000005,-86.8025,US,Road Runner,Road Runner
Quarto Inferiore,Italy,2.228.20.42,44.5333,11.416699999999992,IT,Fastweb,Fastweb
,United Kingdom,94.6.12.58,51.5,-0.12999999999999545,GB,Sky Broadband,Sky Broadband
Sevilla,Spain,217.125.64.141,37.38239999999999,-5.976100000000002,ES,Telefonica de Espana,Telefonica de Espana
Jinju,"Korea, Republic of",58.65.125.146,35.192800000000005,128.0847,KR,Seokyung Cable Television Co.. Ltd.,Seokyung Cable Television Co..LTD.
Kazan,Russian Federation,88.82.89.31,55.788700000000006,49.12209999999999,RU,VimpelCom,Tatintelcom
Jinju,"Korea, Republic of",58.65.126.138,35.192800000000005,128.0847,KR,Seokyung Cable Television Co.. Ltd.,Seokyung Cable Television Co..LTD.
Jinju,"Korea, Republic of",58.65.125.153,35.192800000000005,128.0847,KR,Seokyung Cable Television Co.. Ltd.,Seokyung Cable Television Co..LTD.
,"Korea, Republic of",211.246.251.161,37.0,127.5,KR,Seokyung Cable Television Co.. Ltd.,Seokyung Cable Television Co..LTD.
,"Korea, Republic of",211.246.254.169,37.0,127.5,KR,Seokyung Cable Television Co.. Ltd.,Seokyung Cable Television Co..LTD.
Seoul,"Korea, Republic of",123.215.15.193,37.5985,126.97829999999999,KR,Hanaro Telecom,Hanaro Telecom
,Italy,2.228.20.44,42.83330000000001,12.833300000000008,IT,Fastweb,Fastweb
Winnipeg,Canada,24.78.197.57,49.88329999999999,-97.1667,CA,Shaw Communications,Shaw Communications
Jinju,"Korea, Republic of",58.65.125.157,35.192800000000005,128.0847,KR,Seokyung Cable Television Co.. Ltd.,Seokyung Cable Television Co..LTD.
Jinju,"Korea, Republic of",58.65.127.133,35.192800000000005,128.0847,KR,Seokyung Cable Television Co.. Ltd.,Seokyung Cable Television Co..LTD.
,"Korea, Republic of",211.246.254.74,37.0,127.5,KR,Seokyung Cable Television Co.. Ltd.,Seokyung Cable Television Co..LTD.
Birmingham,United States,67.78.232.81,33.520700000000005,-86.8025,US,Road Runner,Road Runner
Arnold,United States,24.35.6.29,39.0411,-76.4942,US,Broadstripe,Broadstripe
Jinju,"Korea, Republic of",121.1.127.13,35.192800000000005,128.0847,KR,Seokyung Cable Television Co.. Ltd.,Seokyung Cable Television Co..LTD.
Birmingham,United States,67.78.232.69,33.520700000000005,-86.8025,US,Road Runner,Road Runner
Birmingham,United States,67.78.232.81,33.520700000000005,-86.8025,US,Road Runner,Road Runner
Monterrey,Mexico,187.160.192.1,25.66669999999999,-100.3167,MX,"Television Internacional, S.A. de C.V.","Television Internacional, S.A. de C.V."
London,United Kingdom,83.244.229.141,51.51419999999999,-0.09309999999999263,GB,Exponential-e,Exponential-e
,"Korea, Republic of",211.246.251.105,37.0,127.5,KR,Seokyung Cable Television Co.. Ltd.,Seokyung Cable Television Co..LTD.
Jinju,"Korea, Republic of",58.65.125.230,35.192800000000005,128.0847,KR,Seokyung Cable Television Co.. Ltd.,Seokyung Cable Television Co..LTD.
Boxborough,United States,192.154.119.230,42.49170000000001,-71.517,US,Lightower Fiber Networks,Lightower Fiber Networks
Boxborough,United States,192.154.119.232,42.49170000000001,-71.517,US,Lightower Fiber Networks,Lightower Fiber Networks
Chennai,India,203.124.153.102,13.083300000000008,80.2833,IN,"Gateway Systems (India) Pvt. Ltd., Pune.",Broadband Wirelesss Internet Service Provider
Jinju,"Korea, Republic of",58.65.125.65,35.192800000000005,128.0847,KR,Seokyung Cable Television Co.. Ltd.,Seokyung Cable Television Co..LTD.
Westwood,United States,74.105.133.225,41.00989999999999,-74.0073,US,Verizon FiOS,Verizon FiOS
Seoul,"Korea, Republic of",123.215.15.193,37.5985,126.97829999999999,KR,Hanaro Telecom,Hanaro Telecom
Tulsa,United States,68.109.249.82,36.153999999999996,-95.9928,US,Cox Communications,Cox Communications
,Italy,93.63.206.78,42.83330000000001,12.833300000000008,IT,Fastweb,Fastweb
London,United Kingdom,83.244.229.132,51.51419999999999,-0.09309999999999263,GB,Exponential-e,Exponential-e
London,United Kingdom,83.244.229.133,51.51419999999999,-0.09309999999999263,GB,Exponential-e,Exponential-e
Monistrol,Spain,79.145.121.69,41.610000000000014,1.848700000000008,ES,Telefonica de Espana,Telefonica de Espana
,Australia,27.50.94.218,-27.0,133.0,AU,ServersAustralia,ServersAustralia
Seoul,"Korea, Republic of",211.32.40.238,37.5985,126.97829999999999,KR,DACOM Corp.,DACOM Corp.
Istanbul,Turkey,89.106.10.83,41.01859999999999,28.964699999999993,TR,Grid Bilisim Teknolojileri A.S.,Customer GSHDSL Pool
Samara,Russian Federation,178.45.168.243,53.18350000000001,50.1182,RU,OJSC Rostelecom,OJSC Rostelecom
,Australia,27.50.94.133,-27.0,133.0,AU,ServersAustralia,ServersAustralia
Delhi,India,125.21.242.165,28.66669999999999,77.2167,IN,Bharti Broadband,Bharti Broadband
Austin,United States,66.112.231.198,30.430800000000005,-97.7213,US,Apogee Telecom,Apogee Telecom
Skopje,Macedonia,85.30.110.117,42.0,21.433300000000003,MK,ONE Telecommunications Services Stock Company Skop,ONE Telecommunications Services Stock Company Skop
,United Kingdom,176.12.104.85,54.0,-2.0,GB,Custodian LTD.,Custodian LTD.
,United Kingdom,176.12.104.82,54.0,-2.0,GB,Custodian LTD.,Custodian LTD.
Tucson,United States,150.135.129.119,32.2338,-110.95,US,University of Arizona,University of Arizona
Mdina,Senegal,213.154.93.1,13.333300000000008,-13.766699999999986,SN,Societe Nationale Des Telecommunications Du Senega,Societe Nationale Des Telecommunications Du Senega
,United Kingdom,176.12.104.81,54.0,-2.0,GB,Custodian LTD.,Custodian LTD.
,United Kingdom,176.12.104.84,54.0,-2.0,GB,Custodian LTD.,Custodian LTD.
Guayaquil,Ecuador,186.101.13.219,-2.1666999999999916,-79.9,EC,Telconet S.A,Telconet S.A
,United Kingdom,176.12.104.80,54.0,-2.0,GB,Custodian LTD.,Custodian LTD.
Lenexa,United States,72.129.201.209,38.949900000000014,-94.7453,US,Road Runner,Road Runner
,Australia,27.50.94.133,-27.0,133.0,AU,ServersAustralia,ServersAustralia
Lenexa,United States,72.129.201.158,38.949900000000014,-94.7453,US,Road Runner,Road Runner
,United Kingdom,176.12.104.83,54.0,-2.0,GB,Custodian LTD.,Custodian LTD.
Seoul,"Korea, Republic of",123.215.15.192,37.5985,126.97829999999999,KR,Hanaro Telecom,Hanaro Telecom
New York,United States,24.103.47.34,40.76939999999999,-73.9609,US,Road Runner,Road Runner
,Greece,31.177.59.17,39.0,22.0,GR,Lamda Hellix SA,Lamda Hellix SA
Seoul,"Korea, Republic of",211.32.40.238,37.5985,126.97829999999999,KR,DACOM Corp.,DACOM Corp.
,China,218.108.15.3,35.0,105.0,CN,"WASU TV & Communication Holding Co.,Ltd.","WASU TV & Communication Holding Co.,Ltd."
Mount Pleasant,United States,141.209.16.199,43.56469999999999,-84.8473,US,Central Michigan University,Central Michigan University
,Chile,190.208.6.138,-30.0,-71.0,CL,Telmex Servicios Empresariales S.A.,Telmex Servicios Empresariales S.A.
Granollers,Spain,83.50.77.130,41.6078,2.2897000000000105,ES,Telefonica de Espana,Telefonica de Espana
,United States,205.170.118.196,38.0,-97.0,US,Century Link,Mountain Broadband
Mount Pleasant,United States,141.209.16.196,43.56469999999999,-84.8473,US,Central Michigan University,Central Michigan University
Mount Carmel,United States,24.158.138.49,36.56299999999999,-82.6638,US,Charter Communications,Charter Communications
Milwaukee,United States,69.80.98.156,43.03890000000001,-87.9065,US,Powerhouse Management,Powerhouse Management
Adelaide,Australia,122.49.154.52,-34.92869999999999,138.59859999999998,AU,Adam Internet Pty Ltd,Adam Internet Pty Ltd
,Russian Federation,95.140.93.194,60.0,100.0,RU,Jsc Globalnet,GlobalNet Services Network
,France,94.247.236.78,46.0,2.0,FR,Ad Valem Technologies,Ad Valem Technologies
Monterrey,Mexico,187.161.41.130,25.66669999999999,-100.3167,MX,"Television Internacional, S.A. de C.V.","Television Internacional, S.A. de C.V."
,"Korea, Republic of",58.65.126.57,37.0,127.5,KR,Seokyung Cable Television Co.. Ltd.,Seokyung Cable Television Co.. Ltd.
,"Korea, Republic of",58.65.127.141,37.0,127.5,KR,Seokyung Cable Television Co.. Ltd.,Seokyung Cable Television Co.. Ltd.
Tekirdag,Turkey,88.249.254.133,40.97800000000001,27.508499999999998,TR,Turk Telekom,Turk Telekom
Frankfurt,Germany,72.21.89.214,50.11670000000001,8.683300000000003,DE,EdgeCast Networks,Intercom Ventures
Tirol,Austria,80.109.134.172,47.69999999999999,15.550000000000011,AT,Chello Broadband GmbH,Telesystem Tirol
Birmingham,United States,65.15.147.82,33.520700000000005,-86.8025,US,BellSouth.net,BellSouth.net
Saint Louis,United States,24.216.204.23,38.614299999999986,-90.4444,US,Charter Communications,Charter Communications
Saint Louis,United States,24.216.204.26,38.614299999999986,-90.4444,US,Charter Communications,Charter Communications
,"Korea, Republic of",211.58.113.98,37.0,127.5,KR,SK Broadband Co Ltd,SK Broadband Co Ltd
Englewood,United States,209.189.78.102,39.623700000000014,-104.8738,US,NTT America,NTT America - Southern California
Sofia,Bulgaria,77.85.196.78,42.6833,23.316699999999997,BG,Bulgarian Telecommunications Company Plc.,Bulgarian Telecommunications Company Plc.
Ingleside,United States,69.92.190.133,27.877800000000008,-97.2117,US,Cable One,Cable One
Athens,United States,128.192.61.172,33.949900000000014,-83.375,US,University Of Georgia,University Of Georgia
Saint Louis,United States,24.216.204.24,38.614299999999986,-90.4444,US,Charter Communications,Charter Communications
,Taiwan,211.79.63.146,23.5,121.0,TW,National Center for High-performance Computing,National Center for High-performance Computing
,"Korea, Republic of",219.240.198.218,37.0,127.5,KR,SK Broadband Co Ltd,SK Broadband Co Ltd
,"Korea, Republic of",211.58.113.73,37.0,127.5,KR,SK Broadband Co Ltd,SK Broadband Co Ltd
New Prague,United States,76.164.158.1,44.5411,-93.5902,US,Bevcomm,Bevcomm
,"Korea, Republic of",121.126.13.149,37.0,127.5,KR,HAIonNet,HAIonNet
Douglas,United States,173.186.116.245,31.508800000000008,-82.8499,US,Windstream Communications,Windstream Communications
Istanbul,Turkey,92.45.23.148,41.01859999999999,28.964699999999993,TR,Tellcom Iletisim Hizmetleri A.s.,Tellcom Iletisim Hizmetleri A.s.
Bangkok,Thailand,203.209.101.198,13.75399999999999,100.50139999999999,TH,KSC Commercial Internet Co. Ltd.,KSC Commercial Internet Co. Ltd.
Seoul,"Korea, Republic of",61.37.229.143,37.5985,126.97829999999999,KR,DACOM Corp.,DACOM Corp.
Saint Louis,United States,24.216.204.25,38.614299999999986,-90.4444,US,Charter Communications,Charter Communications
Seoul,"Korea, Republic of",125.147.38.130,37.5985,126.97829999999999,KR,Korea Telecom,Korea Telecom
Tucson,United States,150.135.129.122,32.2338,-110.95,US,University of Arizona,University of Arizona
,"Korea, Republic of",211.58.113.100,37.0,127.5,KR,SK Broadband Co Ltd,SK Broadband Co Ltd
,Czech Republic,89.221.215.69,49.75,15.5,CZ,"Visual Connection, spol. s r.o.","Visual Connection, spol. s r.o."
,Turkey,81.25.141.42,39.0,35.0,TR,Sidus S.a.r.l.,Network for Turksat Satellite Communication cable
,Czech Republic,89.221.215.47,49.75,15.5,CZ,"Visual Connection, spol. s r.o.","Visual Connection, spol. s r.o."
Belpasso,Italy,93.63.206.62,37.58330000000001,14.966700000000003,IT,Fastweb,VIDEOBANK
,Czech Republic,89.221.215.46,49.75,15.5,CZ,"Visual Connection, spol. s r.o.","Visual Connection, spol. s r.o."
,Czech Republic,89.221.215.48,49.75,15.5,CZ,"Visual Connection, spol. s r.o.","Visual Connection, spol. s r.o."
,Taiwan,211.79.63.145,23.5,121.0,TW,National Center for High-performance Computing,National Center for High-performance Computing
Seoul,"Korea, Republic of",125.147.38.134,37.5985,126.97829999999999,KR,Korea Telecom,Korea Telecom
Mystic,United States,64.251.63.114,41.3749,-71.9766,US,State of Connecticut Dept of InformationTechnology,Mystic Marine Life Aquarium
Monterrey,Mexico,207.248.50.58,25.66669999999999,-100.3167,MX,Television Internacional S.A. de C.V.,Television Internacional S.A. de C.V.
,Turkey,81.25.141.38,39.0,35.0,TR,Sidus S.a.r.l.,Network for Turksat Satellite Communication cable
Birmingham,United States,65.15.147.93,33.520700000000005,-86.8025,US,BellSouth.net,BellSouth.net
Ellenwood,United States,216.250.216.39,33.63560000000001,-84.2605,US,PanAmSat Corporation,PanAmSat Corporation
,"Korea, Republic of",122.252.121.2,37.0,127.5,KR,CJ-HELLOVISION,CJ-HELLOVISION
Belpasso,Italy,93.63.206.75,37.58330000000001,14.966700000000003,IT,Fastweb,VIDEOBANK
Toronto,Canada,38.113.164.107,43.66669999999999,-79.4167,CA,Cogent Communications,Cogent Communications
Dyersburg,United States,67.33.50.171,36.03450000000001,-89.3856,US,BellSouth.net,BellSouth.net
,"Korea, Republic of",211.58.113.74,37.0,127.5,KR,SK Broadband Co Ltd,SK Broadband Co Ltd
Ellenwood,United States,216.250.216.41,33.63560000000001,-84.2605,US,PanAmSat Corporation,PanAmSat Corporation
Ingleside,United States,69.92.190.131,27.877800000000008,-97.2117,US,Cable One,Cable One
,Czech Republic,89.221.215.64,49.75,15.5,CZ,"Visual Connection, spol. s r.o.","Visual Connection, spol. s r.o."
,Sweden,195.54.109.52,62.0,15.0,SE,Bredbandsbolaget AB,Bredbandsbolaget AB
Fargo,United States,72.18.123.73,46.854299999999995,-96.8284,US,Forum Communications Company,Forum Communications Company
Seoul,"Korea, Republic of",61.76.76.205,37.5985,126.97829999999999,KR,Korea Telecom,Korea Telecom
White City,United States,97.90.105.103,42.4374,-122.8589,US,Charter Communications,Charter Communications
Fort Lauderdale,United States,204.88.31.3,26.122299999999996,-80.1434,US,"FPL FiberNet, LLC","FPL FiberNet, LLC"
Belpasso,Italy,93.63.206.52,37.58330000000001,14.966700000000003,IT,Fastweb,VIDEOBANK
Stockholm,Sweden,212.247.37.18,59.33330000000001,18.05000000000001,SE,Tele2 SWIPnet,Viasat Satellite Services AB / Interaccess
Allentown,United States,216.15.65.91,40.567800000000005,-75.4828,US,RCN Corporation,RCN Corporation
,United States,69.182.8.130,38.0,-97.0,US,AT&T Internet Services,AT&T Internet Services
Douglas,United States,173.186.116.244,31.508800000000008,-82.8499,US,Windstream Communications,Windstream Communications
Tucson,United States,150.135.250.56,32.2338,-110.95,US,University of Arizona,University of Arizona
,Sweden,195.54.109.4,62.0,15.0,SE,Bredbandsbolaget AB,Bredbandsbolaget AB
,Sweden,195.54.109.20,62.0,15.0,SE,Bredbandsbolaget AB,Bredbandsbolaget AB
,Taiwan,211.79.63.146,23.5,121.0,TW,National Center for High-performance Computing,National Center for High-performance Computing
,Spain,194.149.213.139,40.0,-4.0,ES,ONO,Investigacion y Desarroyo
,United States,69.182.8.123,38.0,-97.0,US,AT&T Internet Services,Ct Public Television
,Italy,213.215.242.42,42.83330000000001,12.833300000000008,IT,COLT Technology Services Group Limited,Sky
Ellenwood,United States,216.139.173.40,33.63560000000001,-84.2605,US,PanAmSat Corporation,PanAmSat Corporation
Ellenwood,United States,216.139.173.39,33.63560000000001,-84.2605,US,PanAmSat Corporation,PanAmSat Corporation
,Sweden,195.54.109.28,62.0,15.0,SE,Bredbandsbolaget AB,Bredbandsbolaget AB
Kingston,United States,131.128.93.28,41.477300000000014,-71.5208,US,University of Rhode Island,University of Rhode Island
Birmingham,United States,68.157.224.26,33.4512,-86.8964,US,BellSouth.net,BellSouth.net
Stockholm,Sweden,212.247.37.26,59.33330000000001,18.05000000000001,SE,Tele2 SWIPnet,Viasat Satellite Services AB / Interaccess
Seoul,"Korea, Republic of",211.32.40.235,37.5985,126.97829999999999,KR,DACOM Corp.,DACOM Corp.
Bedfordview,South Africa,196.211.92.20,-26.17670000000001,28.142200000000003,ZA,Internet Solutions,Internet Solutions
Lule,Sweden,130.240.72.18,65.58330000000001,22.150000000000006,SE,Lulea technical university,Lulea technical university
Lule,Sweden,130.240.72.17,65.58330000000001,22.150000000000006,SE,Lulea technical university,Lulea technical university
Stockholm,Sweden,212.247.37.13,59.33330000000001,18.05000000000001,SE,Tele2 SWIPnet,Viasat Satellite Services AB / Interaccess
,Sweden,195.54.109.12,62.0,15.0,SE,Bredbandsbolaget AB,Bredbandsbolaget AB
Fargo,United States,72.18.113.9,46.925700000000006,-96.8286,US,Forum Communications Company,Forum Communications Company
Honolulu,United States,72.235.72.8,21.313600000000008,-157.8057,US,Hawaiian Telcom Services Company,Hawaiian Telcom Services Company
Manama,Bahrain,77.69.145.3,26.236099999999993,50.5831,BH,Batelco,Batelco ADSL service
,Austria,81.10.150.252,47.33330000000001,13.333300000000008,AT,LIWEST Kabelfernsehen Errichtungs- und Betriebs Ge,LIWEST Kabelfernsehen Errichtungs- und Betriebs Ge
Birmingham,United States,68.157.224.25,33.4512,-86.8964,US,BellSouth.net,BellSouth.net
Overland Park,United States,72.166.54.71,38.982200000000006,-94.6708,US,Century Link,Bandwidth.com
Denver,United States,66.179.184.120,39.84739999999999,-104.9459,US,Inflow,Host Works
